{"type": "FeatureCollection","features": [{"type": "Feature", "geometry": {"type":"Point","coordinates":[126.9713213,37.540538]}, "properties": {"osm_id": 5899527454, "osm_type": "nodes", "name": "남영", "operator": "한국철도공사", "building": "train_station", "public_transport": "station", "amenity": null}},{"type": "Feature", "geometry": {"type":"Point","coordinates":[127.0971016,37.5126895]}, "properties": {"osm_id": 13540194270, "osm_type": "nodes", "name": "잠실역시외버스정류소", "operator": null, "building": null, "public_transport": "station", "amenity": "bus_station"}},{"type": "Feature", "geometry": {"type":"Point","coordinates":[127.0616998,37.663083]}, "properties": {"osm_id": 4654978739, "osm_type": "nodes", "name": null, "operator": null, "building": null, "public_transport": "station", "amenity": "bus_station"}},{"type": "Feature", "geometry": {"type":"Point","coordinates":[127.1783199,37.6604331]}, "properties": {"osm_id": 4634593094, "osm_type": "nodes", "name": "한신 현대 세아", "operator": null, "building": null, "public_transport": null, "amenity": "bus_station"}},{"type": "Feature", "geometry": {"type":"Point","coordinates":[127.0073191,37.5063448]}, "properties": {"osm_id": 4436818291, "osm_type": "nodes", "name": null, "operator": null, "building": null, "public_transport": "station", "amenity": "bus_station"}},{"type": "Feature", "geometry": {"type":"Point","coordinates":[127.015564,37.4843223]}, "properties": {"osm_id": 11640074899, "osm_type": "nodes", "name": "서울남부터미널", "operator": null, "building": null, "public_transport": "station", "amenity": "bus_station"}},{"type": "Feature", "geometry": {"type":"Point","coordinates":[127.0535233,37.6787921]}, "properties": {"osm_id": 368736059, "osm_type": "nodes", "name": "한국도심공항수락터미널", "operator": null, "building": null, "public_transport": "station", "amenity": "bus_station"}},{"type": "Feature", "geometry": {"type":"Point","coordinates":[127.0928469,37.5963841]}, "properties": {"osm_id": 12240973439, "osm_type": "nodes", "name": "상봉터미널 임시승차장", "operator": null, "building": null, "public_transport": "station", "amenity": "bus_station"}},{"type": "Feature", "geometry": {"type":"Point","coordinates":[126.9537999,37.5896454]}, "properties": {"osm_id": 4588269223, "osm_type": "nodes", "name": "개미마을종점", "operator": null, "building": null, "public_transport": null, "amenity": "bus_station"}},{"type": "Feature", "geometry": {"type":"Polygon","coordinates":[[[126.8337301,37.6118214],[126.8337448,37.6114994],[126.8338651,37.6115032],[126.833857,37.6114427],[126.8339762,37.6114494],[126.8343237,37.6114671],[126.8343233,37.6114867],[126.834323,37.611507],[126.8343172,37.6118369],[126.8341652,37.6118425],[126.834161,37.6119189],[126.8338231,37.6119168],[126.8337757,37.6119154],[126.8337887,37.6118214],[126.8337301,37.6118214]]]}, "properties": {"osm_id": 1218992084, "osm_type": "ways_poly", "railway": null, "operator": null, "layer": "1", "public_transport": null, "building": "train_station", "name": null, "amenity": null}},{"type": "Feature", "geometry": {"type":"Polygon","coordinates":[[[126.8937319,37.4559059],[126.8937565,37.4558523],[126.8938291,37.4558721],[126.8939139,37.4558947],[126.8939968,37.4559172],[126.8941131,37.4559496],[126.8943351,37.4554478],[126.8944154,37.4554702],[126.8943169,37.4556929],[126.8944261,37.4557233],[126.8943683,37.455854],[126.89439,37.455859],[126.8943791,37.4558865],[126.8943562,37.4558812],[126.8942669,37.4560833],[126.8942001,37.4560647],[126.8942146,37.4560321],[126.8941948,37.4560279],[126.8939743,37.4559674],[126.8938912,37.4559455],[126.8938061,37.4559234],[126.8937319,37.4559059]]]}, "properties": {"osm_id": 315014332, "osm_type": "ways_poly", "railway": null, "operator": null, "layer": "1", "public_transport": null, "building": "train_station", "name": null, "amenity": null}},{"type": "Feature", "geometry": {"type":"Polygon","coordinates":[[[126.809565,37.6317813],[126.8102892,37.6316921],[126.8108618,37.6316125],[126.8114479,37.6315232],[126.8123934,37.6314096],[126.8124336,37.6316114],[126.8114895,37.6317314],[126.81089,37.6318153],[126.8102865,37.6318907],[126.8101105,37.631913],[126.8096159,37.6319757],[126.809565,37.6317813]]]}, "properties": {"osm_id": 623896882, "osm_type": "ways_poly", "railway": null, "operator": "한국철도공사", "layer": "2", "public_transport": null, "building": "train_station", "name": null, "amenity": null}},{"type": "Feature", "geometry": {"type":"Polygon","coordinates":[[[126.8452092,37.6122315],[126.8453016,37.6122361],[126.845459,37.6125441],[126.8455681,37.6125517],[126.8455628,37.6125997],[126.8457937,37.6126157],[126.8457847,37.6126971],[126.8455547,37.6126811],[126.8455494,37.6127291],[126.8452411,37.6127077],[126.8452607,37.6125304],[126.8453624,37.6125375],[126.8452092,37.6122315]]]}, "properties": {"osm_id": 495912684, "osm_type": "ways_poly", "railway": null, "operator": null, "layer": "1", "public_transport": null, "building": "train_station", "name": null, "amenity": null}},{"type": "Feature", "geometry": {"type":"Polygon","coordinates":[[[126.889116,37.4664749],[126.889442,37.4657462],[126.8895447,37.4657752],[126.8895817,37.4657737],[126.8896278,37.4657838],[126.8896635,37.4657984],[126.8896913,37.4658165],[126.8897861,37.4658432],[126.8894738,37.4665409],[126.8894228,37.4665265],[126.8895293,37.4662885],[126.8894875,37.4662767],[126.8894533,37.4662798],[126.8894101,37.4662716],[126.8893697,37.4662547],[126.8893406,37.4662353],[126.8892998,37.4662238],[126.8891795,37.4664928],[126.889116,37.4664749]]]}, "properties": {"osm_id": 315014334, "osm_type": "ways_poly", "railway": null, "operator": null, "layer": "1", "public_transport": null, "building": "train_station", "name": "독산역", "amenity": null}},{"type": "Feature", "geometry": {"type":"Polygon","coordinates":[[[126.9021659,37.4343125],[126.9021713,37.434286],[126.902178,37.4342529],[126.9022513,37.4342623],[126.9022837,37.4341038],[126.9028033,37.4341706],[126.9027938,37.4342173],[126.902744,37.4342109],[126.902721,37.4343239],[126.9027387,37.4343262],[126.9027275,37.434381],[126.9026321,37.4343687],[126.9026644,37.4342098],[126.9026098,37.4342027],[126.9025534,37.4344889],[126.9025169,37.4344843],[126.902476,37.4344793],[126.9025055,37.4343426],[126.9024222,37.4343319],[126.9023968,37.434474],[126.9023536,37.4344687],[126.9023148,37.4344658],[126.9023736,37.4341816],[126.9023273,37.4341756],[126.902296,37.4343292],[126.9021659,37.4343125]]]}, "properties": {"osm_id": 315014335, "osm_type": "ways_poly", "railway": null, "operator": null, "layer": "1", "public_transport": null, "building": "train_station", "name": null, "amenity": null}},{"type": "Feature", "geometry": {"type":"Polygon","coordinates":[[[126.7971685,37.5785624],[126.7972692,37.5783296],[126.7978166,37.5784652],[126.7978884,37.5784833],[126.7980651,37.5785133],[126.7983058,37.5785813],[126.7982704,37.5786684],[126.7980935,37.5786178],[126.7980178,37.578793],[126.7971685,37.5785624]]]}, "properties": {"osm_id": 226245410, "osm_type": "ways_poly", "railway": null, "operator": null, "layer": "1", "public_transport": null, "building": "train_station", "name": "개화", "amenity": null}},{"type": "Feature", "geometry": {"type":"Polygon","coordinates":[[[126.9124405,37.6481783],[126.9149113,37.6478422],[126.9149704,37.6481147],[126.9124997,37.6484508],[126.9124405,37.6481783]]]}, "properties": {"osm_id": 628246202, "osm_type": "ways_poly", "railway": null, "operator": null, "layer": null, "public_transport": null, "building": "train_station", "name": null, "amenity": null}},{"type": "Feature", "geometry": {"type":"Polygon","coordinates":[[[127.1029551,37.6126258],[127.1030439,37.6125859],[127.10312,37.6125596],[127.1033293,37.6124873],[127.1035604,37.6124195],[127.1036648,37.6126382],[127.1034317,37.6127032],[127.1033916,37.6127174],[127.1031491,37.6127939],[127.1030683,37.6128305],[127.1029551,37.6126258]]]}, "properties": {"osm_id": 400422665, "osm_type": "ways_poly", "railway": null, "operator": null, "layer": null, "public_transport": null, "building": "train_station", "name": "신내역", "amenity": null}},{"type": "Feature", "geometry": {"type":"Polygon","coordinates":[[[127.1421532,37.6031387],[127.1422542,37.6028577],[127.1445685,37.6033795],[127.1444676,37.6036605],[127.1421532,37.6031387]]]}, "properties": {"osm_id": 471319268, "osm_type": "ways_poly", "railway": null, "operator": null, "layer": "1", "public_transport": null, "building": "train_station", "name": "구리역", "amenity": null}},{"type": "Feature", "geometry": {"type":"Polygon","coordinates":[[[126.8014291,37.645708],[126.801431,37.6456614],[126.8014355,37.6456532],[126.801467,37.64564],[126.8015446,37.6455008],[126.8016741,37.6455461],[126.8016617,37.6455683],[126.8017257,37.6455906],[126.8017346,37.6455746],[126.8021946,37.6457353],[126.8020773,37.6459459],[126.801672,37.6458044],[126.8016799,37.6457903],[126.8015631,37.6457495],[126.8015483,37.645776],[126.8014805,37.6457524],[126.8014856,37.6457432],[126.8014406,37.6457275],[126.8014291,37.645708]]]}, "properties": {"osm_id": 623896889, "osm_type": "ways_poly", "railway": null, "operator": null, "layer": "1", "public_transport": null, "building": "train_station", "name": "곡산역", "amenity": null}},{"type": "Feature", "geometry": {"type":"Polygon","coordinates":[[[126.8423185,37.6523624],[126.8425143,37.6522754],[126.8435067,37.6538319],[126.8433002,37.6539063],[126.8423185,37.6523624]]]}, "properties": {"osm_id": 628243587, "osm_type": "ways_poly", "railway": null, "operator": null, "layer": "1", "public_transport": null, "building": "train_station", "name": null, "amenity": null}},{"type": "Feature", "geometry": {"type":"Polygon","coordinates":[[[126.7888659,37.6428341],[126.7895617,37.642302],[126.7907346,37.643258],[126.7901345,37.643714],[126.7898857,37.6434994],[126.789978,37.6434323],[126.7894048,37.642938],[126.7891875,37.643096],[126.7888659,37.6428341]]]}, "properties": {"osm_id": 470272068, "osm_type": "ways_poly", "railway": null, "operator": null, "layer": null, "public_transport": "station", "building": "yes", "name": "고양종합터미널", "amenity": "bus_station"}},{"type": "Feature", "geometry": {"type":"Polygon","coordinates":[[[127.0458531,37.6890517],[127.0458574,37.6890363],[127.0459404,37.6885668],[127.0463311,37.6885851],[127.0463339,37.6883589],[127.0463757,37.6883613],[127.0463749,37.6886137],[127.0463748,37.6886396],[127.0463953,37.6886397],[127.0463566,37.6889256],[127.046292,37.6889253],[127.0462879,37.688977],[127.0465582,37.6889907],[127.0465185,37.6890699],[127.0464352,37.6890634],[127.0464148,37.6892744],[127.0464316,37.6892811],[127.0464052,37.6893516],[127.0463285,37.6893244],[127.0463498,37.6890591],[127.046301,37.6890566],[127.0462967,37.689124],[127.0461553,37.6891193],[127.0461559,37.689068],[127.0460212,37.6890616],[127.0458531,37.6890517]]]}, "properties": {"osm_id": 201236015, "osm_type": "ways_poly", "railway": null, "operator": null, "layer": "1", "public_transport": null, "building": "train_station", "name": null, "amenity": null}},{"type": "Feature", "geometry": {"type":"Polygon","coordinates":[[[126.8099852,37.6322785],[126.8101838,37.6319367],[126.8110524,37.6318289],[126.8110886,37.6320319],[126.8102902,37.6321391],[126.8101499,37.6323511],[126.8099852,37.6322785]]]}, "properties": {"osm_id": 1356647633, "osm_type": "ways_poly", "railway": null, "operator": null, "layer": null, "public_transport": null, "building": "train_station", "name": null, "amenity": null}},{"type": "Feature", "geometry": {"type":"Polygon","coordinates":[[[126.8831907,37.4806527],[126.8832558,37.4805007],[126.8832721,37.4805064],[126.8832901,37.48051],[126.8832251,37.4806619],[126.8831907,37.4806527]]]}, "properties": {"osm_id": 1415869302, "osm_type": "ways_poly", "railway": null, "operator": null, "layer": null, "public_transport": null, "building": "train_station", "name": null, "amenity": null}},{"type": "Feature", "geometry": {"type":"Polygon","coordinates":[[[126.8905645,37.5091286],[126.8910337,37.509104],[126.8911575,37.5091572],[126.8911775,37.509128],[126.8912557,37.5091616],[126.8915567,37.5087215],[126.8910918,37.5085215],[126.8911311,37.508464],[126.8919515,37.508817],[126.8918137,37.5090186],[126.8918615,37.5090392],[126.8916375,37.5093668],[126.891611,37.50937],[126.8915602,37.5093555],[126.8915175,37.50937],[126.8914545,37.5093749],[126.891359,37.5093265],[126.8913346,37.5093023],[126.8912952,37.5095155],[126.8912051,37.509505],[126.8912431,37.5092991],[126.8911913,37.5092788],[126.8911669,37.5093179],[126.8909667,37.5092394],[126.8909301,37.509183],[126.8905706,37.5092018],[126.8905645,37.5091286]]]}, "properties": {"osm_id": 553675216, "osm_type": "ways_poly", "railway": null, "operator": null, "layer": "1", "public_transport": null, "building": "train_station", "name": "신도림역", "amenity": null}},{"type": "Feature", "geometry": {"type":"Polygon","coordinates":[[[127.1074446,37.606666],[127.1075766,37.6063633],[127.1075991,37.6063117],[127.1083166,37.6065114],[127.1082719,37.6066064],[127.1083735,37.6066322],[127.1083939,37.6065936],[127.1084508,37.6066242],[127.1084345,37.6066612],[127.1083735,37.6067932],[127.1083634,37.606819],[127.1082922,37.6068126],[127.1083024,37.6067804],[127.1082048,37.6067562],[127.1081601,37.6068496],[127.1074446,37.606666]]]}, "properties": {"osm_id": 472452155, "osm_type": "ways_poly", "railway": null, "operator": null, "layer": "1", "public_transport": null, "building": "train_station", "name": null, "amenity": null}},{"type": "Feature", "geometry": {"type":"Polygon","coordinates":[[[126.8578642,37.4946084],[126.858262,37.4945296],[126.8582483,37.4944859],[126.8585697,37.4944223],[126.8585835,37.494466],[126.8586428,37.4944542],[126.8586325,37.4944216],[126.8587229,37.4944037],[126.8587113,37.4943667],[126.8593065,37.4942489],[126.8593312,37.4943275],[126.8593087,37.4943319],[126.8593234,37.4943788],[126.8594896,37.4943459],[126.85955,37.4945379],[126.8593817,37.4945713],[126.8593986,37.4946252],[126.8594263,37.4946197],[126.8594481,37.4946887],[126.8592253,37.4947328],[126.8592306,37.4947496],[126.858851,37.4948248],[126.858827,37.4947484],[126.8587814,37.4947575],[126.8588001,37.494817],[126.8580346,37.4949686],[126.8580192,37.4949197],[126.8579655,37.4949304],[126.8578642,37.4946084]]]}, "properties": {"osm_id": 249675076, "osm_type": "ways_poly", "railway": null, "operator": null, "layer": "1", "public_transport": null, "building": "train_station", "name": null, "amenity": null}},{"type": "Feature", "geometry": {"type":"Polygon","coordinates":[[[127.0434283,37.556634],[127.0434755,37.5563238],[127.0434442,37.5563178],[127.043521,37.5558066],[127.0436266,37.5551036],[127.0436589,37.555104],[127.0437036,37.5547967],[127.0437334,37.5547994],[127.0438987,37.5548146],[127.0438539,37.5551219],[127.0438868,37.555127],[127.043775,37.5558297],[127.043693,37.5563446],[127.0436515,37.5563407],[127.0436044,37.5566508],[127.043484,37.5566393],[127.0434283,37.556634]]]}, "properties": {"osm_id": 187161227, "osm_type": "ways_poly", "railway": null, "operator": "서울교통공사", "layer": null, "public_transport": null, "building": "train_station", "name": null, "amenity": null}},{"type": "Feature", "geometry": {"type":"Polygon","coordinates":[[[126.7859521,37.6722873],[126.78599,37.6722159],[126.786131,37.6722627],[126.7861378,37.6722584],[126.7861758,37.672237],[126.7863736,37.6718886],[126.7864559,37.6719166],[126.7863489,37.6721054],[126.7864307,37.6721326],[126.7865354,37.6719481],[126.7866175,37.6719754],[126.7865682,37.6720685],[126.7867731,37.6721365],[126.7866502,37.6723682],[126.7865619,37.6723388],[126.7865293,37.6724001],[126.7865305,37.6724044],[126.7865314,37.6724454],[126.7865268,37.6724648],[126.7866415,37.6725029],[126.7865971,37.6725865],[126.7864814,37.6725481],[126.7864734,37.6725575],[126.7864366,37.6725862],[126.7863931,37.6726085],[126.7863449,37.6726233],[126.7862939,37.6726302],[126.7862422,37.6726288],[126.786192,37.6726192],[126.7861451,37.6726018],[126.7861037,37.6725773],[126.7860694,37.6725467],[126.7860435,37.6725113],[126.7860272,37.6724724],[126.7860211,37.6724317],[126.7860254,37.6723909],[126.7860401,37.6723517],[126.7860594,37.672323],[126.7859521,37.6722873]]]}, "properties": {"osm_id": 623896895, "osm_type": "ways_poly", "railway": null, "operator": null, "layer": "2", "public_transport": null, "building": "train_station", "name": null, "amenity": null}},{"type": "Feature", "geometry": {"type":"Polygon","coordinates":[[[127.061834,37.6230552],[127.061856,37.6230069],[127.0618955,37.6230182],[127.0619336,37.6229346],[127.0619808,37.6229481],[127.0620294,37.622962],[127.0619898,37.6230488],[127.0623778,37.6231599],[127.0623572,37.6232049],[127.061834,37.6230552]]]}, "properties": {"osm_id": 1224991076, "osm_type": "ways_poly", "railway": null, "operator": null, "layer": null, "public_transport": null, "building": "train_station", "name": null, "amenity": null}},{"type": "Feature", "geometry": {"type":"Polygon","coordinates":[[[127.0587114,37.632154],[127.0587355,37.6317094],[127.0587542,37.6317091],[127.0587713,37.6317088],[127.0587779,37.6319058],[127.0587891,37.6319051],[127.058839,37.6319037],[127.0589324,37.6319011],[127.058938,37.6317395],[127.058961,37.6317377],[127.0589851,37.631737],[127.0589811,37.6320261],[127.0589278,37.6320276],[127.0589331,37.6321469],[127.0588703,37.6321487],[127.0588649,37.632027],[127.058848,37.6320275],[127.0587923,37.632029],[127.0587697,37.6320296],[127.0587752,37.6321522],[127.0587114,37.632154]]]}, "properties": {"osm_id": 624711398, "osm_type": "ways_poly", "railway": null, "operator": null, "layer": null, "public_transport": null, "building": "train_station", "name": null, "amenity": null}},{"type": "Feature", "geometry": {"type":"Polygon","coordinates":[[[126.9627381,37.5290735],[126.9635991,37.5283289],[126.9640826,37.5286947],[126.9641851,37.5287722],[126.9647841,37.5291969],[126.9649246,37.5291045],[126.9649911,37.5291483],[126.9651582,37.5292647],[126.9651675,37.5292253],[126.9651831,37.5291875],[126.9652051,37.5291556],[126.9652338,37.5291272],[126.9652701,37.5291023],[126.9653116,37.529083],[126.9653634,37.5290689],[126.9654178,37.5290636],[126.9655039,37.5290741],[126.9655478,37.5290893],[126.9655875,37.5291107],[126.9656203,37.5291362],[126.9656469,37.5291659],[126.9656692,37.5292048],[126.9656809,37.5292465],[126.9656767,37.529314],[126.9656453,37.5293768],[126.9655901,37.5294283],[126.9655168,37.5294629],[126.9654667,37.5294713],[126.9653662,37.5295549],[126.9660442,37.5300495],[126.965977,37.5301088],[126.9662544,37.5303076],[126.9664451,37.5304442],[126.9665148,37.5304886],[126.9665027,37.5304988],[126.9655794,37.5312705],[126.9650615,37.5308914],[126.9644599,37.5304383],[126.963035,37.5294178],[126.9631157,37.5293481],[126.9627381,37.5290735]]]}, "properties": {"osm_id": 210309806, "osm_type": "ways_poly", "railway": null, "operator": null, "layer": "2", "public_transport": null, "building": "train_station", "name": "용산역", "amenity": null}},{"type": "Feature", "geometry": {"type":"Polygon","coordinates":[[[126.880725,37.5025564],[126.8808478,37.5024735],[126.8810294,37.5026427],[126.8817328,37.5021678],[126.8815992,37.5020433],[126.8817496,37.5019418],[126.8819378,37.5021173],[126.8819887,37.5021647],[126.8819512,37.50219],[126.8822763,37.5024933],[126.8821528,37.5025766],[126.8818225,37.5022685],[126.8816871,37.5023599],[126.8816257,37.5024013],[126.8815585,37.5024466],[126.8814996,37.5024864],[126.881428,37.5025347],[126.8813666,37.5025762],[126.8812996,37.5026214],[126.8813424,37.5026613],[126.8812831,37.5027014],[126.8812018,37.5027563],[126.8811498,37.5027914],[126.8810496,37.502859],[126.8809899,37.5028034],[126.8807531,37.5025826],[126.880725,37.5025564]]]}, "properties": {"osm_id": 252928033, "osm_type": "ways_poly", "railway": null, "operator": null, "layer": "1", "public_transport": null, "building": "train_station", "name": null, "amenity": null}},{"type": "Feature", "geometry": {"type":"Polygon","coordinates":[[[126.7690816,37.6820141],[126.7692159,37.6819549],[126.76916,37.6818699],[126.7693177,37.6818004],[126.769373,37.6818748],[126.7695317,37.681804],[126.769601,37.6819122],[126.7695271,37.681944],[126.7695719,37.6820091],[126.7696092,37.6819931],[126.76981,37.682283],[126.7697769,37.6822973],[126.7697868,37.6823862],[126.7698181,37.6823841],[126.7698338,37.6824027],[126.7698396,37.6824095],[126.7698442,37.6824271],[126.7698376,37.6824452],[126.7696199,37.6825357],[126.7696179,37.6825362],[126.7696159,37.6825361],[126.7696144,37.6825353],[126.7696133,37.682534],[126.7695975,37.6825119],[126.769586,37.6825167],[126.7695734,37.6825219],[126.7695489,37.682532],[126.7695342,37.6825096],[126.7695282,37.6824968],[126.7694575,37.6824816],[126.7693871,37.6824428],[126.7692766,37.6823187],[126.7692483,37.6822636],[126.7692375,37.6821934],[126.7692459,37.6820734],[126.7692274,37.6820685],[126.7691438,37.6821045],[126.7690816,37.6820141]]]}, "properties": {"osm_id": 452702681, "osm_type": "ways_poly", "railway": null, "operator": null, "layer": "1", "public_transport": null, "building": "train_station", "name": null, "amenity": null}},{"type": "Feature", "geometry": {"type":"Polygon","coordinates":[[[126.7607222,37.6942214],[126.7607237,37.6939753],[126.7608791,37.6939759],[126.7608799,37.6938421],[126.7611759,37.6938432],[126.7611747,37.6940382],[126.7612595,37.6940385],[126.76126,37.6939657],[126.7613573,37.6939661],[126.7613559,37.6941891],[126.7613557,37.6942238],[126.7607222,37.6942214]]]}, "properties": {"osm_id": 402146907, "osm_type": "ways_poly", "railway": null, "operator": null, "layer": "1", "public_transport": null, "building": "train_station", "name": null, "amenity": null}},{"type": "Feature", "geometry": {"type":"Polygon","coordinates":[[[127.0091917,37.4316542],[127.0095413,37.4315735],[127.0095657,37.4316526],[127.009586,37.4317188],[127.0094668,37.4317484],[127.0092486,37.4318027],[127.0091917,37.4316542]]]}, "properties": {"osm_id": 383731441, "osm_type": "ways_poly", "railway": null, "operator": null, "layer": null, "public_transport": null, "building": "train_station", "name": "스카이리프트 출발지", "amenity": null}},{"type": "Feature", "geometry": {"type":"Polygon","coordinates":[[[127.0668416,37.6006354],[127.0669649,37.6005926],[127.0670144,37.6006822],[127.0669843,37.6006926],[127.0670111,37.6007411],[127.0669761,37.6007533],[127.066918,37.6007735],[127.0668416,37.6006354]]]}, "properties": {"osm_id": 425322316, "osm_type": "ways_poly", "railway": null, "operator": null, "layer": "1", "public_transport": null, "building": "train_station", "name": null, "amenity": null}},{"type": "Feature", "geometry": {"type":"Polygon","coordinates":[[[126.7940631,37.6586314],[126.7941101,37.6583957],[126.7941838,37.6582173],[126.7942764,37.6580337],[126.7943595,37.6579583],[126.7944387,37.6579116],[126.7945258,37.6579009],[126.7945956,37.6579052],[126.7946586,37.6579179],[126.7947122,37.6579402],[126.7947766,37.6579774],[126.7948169,37.6580167],[126.794845,37.6580687],[126.7948651,37.6581281],[126.7948584,37.6581855],[126.7948356,37.6582428],[126.7947941,37.6583129],[126.7947324,37.6584031],[126.7946184,37.6585454],[126.7943984,37.6587577],[126.7940631,37.6586314]]]}, "properties": {"osm_id": 623896892, "osm_type": "ways_poly", "railway": null, "operator": null, "layer": "1", "public_transport": null, "building": "train_station", "name": null, "amenity": null}},{"type": "Feature", "geometry": {"type":"Polygon","coordinates":[[[127.085445,37.5967108],[127.0854969,37.5965836],[127.0860427,37.5967233],[127.0859908,37.5968505],[127.085445,37.5967108]]]}, "properties": {"osm_id": 472456737, "osm_type": "ways_poly", "railway": null, "operator": null, "layer": null, "public_transport": null, "building": "train_station", "name": null, "amenity": null}},{"type": "Feature", "geometry": {"type":"Polygon","coordinates":[[[127.0584271,37.6343037],[127.058791,37.6342935],[127.0587744,37.6339201],[127.0587897,37.6339197],[127.0587833,37.6337738],[127.0588471,37.633772],[127.0588536,37.6339197],[127.0588818,37.6339189],[127.0589339,37.6339174],[127.0589488,37.633917],[127.0589421,37.6337676],[127.059005,37.6337658],[127.0590117,37.6339173],[127.0590551,37.6339161],[127.0590752,37.6343686],[127.0589819,37.6343712],[127.0589207,37.6343729],[127.0588578,37.6343746],[127.0585825,37.6343823],[127.0585878,37.6345005],[127.058436,37.6345047],[127.0584271,37.6343037]]]}, "properties": {"osm_id": 477062543, "osm_type": "ways_poly", "railway": null, "operator": "코레일", "layer": "1", "public_transport": null, "building": "train_station", "name": "월계역", "amenity": null}},{"type": "Feature", "geometry": {"type":"Polygon","coordinates":[[[127.051628,37.6438047],[127.0518221,37.6433502],[127.051865,37.6433617],[127.0518001,37.6435136],[127.0518364,37.6435233],[127.0518773,37.6435343],[127.0519445,37.6435523],[127.0520114,37.6433956],[127.0520477,37.6434053],[127.0519173,37.6437107],[127.0519043,37.6437072],[127.0518386,37.6438611],[127.0517748,37.643844],[127.0518405,37.6436901],[127.0518134,37.6436829],[127.0517752,37.6436727],[127.0517577,37.643668],[127.051692,37.6438218],[127.051628,37.6438047]]]}, "properties": {"osm_id": 624700674, "osm_type": "ways_poly", "railway": null, "operator": null, "layer": null, "public_transport": null, "building": "train_station", "name": null, "amenity": null}},{"type": "Feature", "geometry": {"type":"Polygon","coordinates":[[[127.0462108,37.6902156],[127.0462129,37.6901985],[127.0462564,37.689842],[127.0463637,37.6894621],[127.0464052,37.6893516],[127.0464316,37.6892811],[127.0464952,37.6891119],[127.0465185,37.6890699],[127.0465582,37.6889907],[127.0466936,37.6887532],[127.0467542,37.688779],[127.0467975,37.6887975],[127.046868,37.6888275],[127.0466802,37.6891671],[127.0465488,37.6895152],[127.0464516,37.6898864],[127.0464195,37.6902298],[127.0463216,37.6902231],[127.0462715,37.6902197],[127.0462108,37.6902156]]]}, "properties": {"osm_id": 201236014, "osm_type": "ways_poly", "railway": null, "operator": null, "layer": "1", "public_transport": null, "building": "train_station", "name": null, "amenity": null}},{"type": "Feature", "geometry": {"type":"Polygon","coordinates":[[[127.0627661,37.5952204],[127.062839,37.5951853],[127.0630784,37.5951557],[127.0631539,37.5951152],[127.063199,37.595176],[127.0632929,37.5953027],[127.0632452,37.5953277],[127.0631892,37.5952521],[127.0631766,37.5952578],[127.0632781,37.5954105],[127.0632218,37.5954351],[127.0631652,37.5954607],[127.0631364,37.5954741],[127.0630816,37.5954989],[127.0629804,37.5955463],[127.0628716,37.5953926],[127.0628843,37.595387],[127.0628453,37.5953392],[127.0628565,37.5953329],[127.0627661,37.5952204]]]}, "properties": {"osm_id": 330258688, "osm_type": "ways_poly", "railway": null, "operator": null, "layer": "2", "public_transport": null, "building": "train_station", "name": "외대앞역", "amenity": null}},{"type": "Feature", "geometry": {"type":"Polygon","coordinates":[[[127.0467251,37.5795559],[127.0468216,37.5796112],[127.0470523,37.5796664],[127.0472025,37.5796749],[127.0480608,37.5792583],[127.0482057,37.5793178],[127.0484149,37.5795431],[127.049634,37.5810658],[127.0498765,37.5813687],[127.049933,37.5814392],[127.0492253,37.5817911],[127.0491413,37.5818328],[127.0491122,37.5818473],[127.0489513,37.5818473],[127.0486616,37.5818176],[127.0484685,37.581707],[127.0479804,37.5811204],[127.0478016,37.5811091],[127.0475956,37.5810702],[127.0473934,37.580992],[127.0472543,37.5808861],[127.0469427,37.5804525],[127.046827,37.5802914],[127.0471028,37.5801684],[127.0471703,37.5801383],[127.0467251,37.5795559]]]}, "properties": {"osm_id": 330258689, "osm_type": "ways_poly", "railway": null, "operator": "한국철도공사", "layer": "3", "public_transport": null, "building": "train_station", "name": null, "amenity": null}},{"type": "Feature", "geometry": {"type":"Polygon","coordinates":[[[127.0750036,37.5948035],[127.0750931,37.5945522],[127.0774295,37.595069],[127.0773372,37.5953253],[127.0765576,37.595151],[127.0760572,37.5950391],[127.0750036,37.5948035]]]}, "properties": {"osm_id": 330258695, "osm_type": "ways_poly", "railway": null, "operator": null, "layer": "1", "public_transport": null, "building": "train_station", "name": null, "amenity": null}},{"type": "Feature", "geometry": {"type":"Polygon","coordinates":[[[127.0672173,37.6017321],[127.0672737,37.6017182],[127.0672926,37.6017132],[127.0673367,37.6017014],[127.0673549,37.6016966],[127.0674138,37.6016805],[127.0675688,37.6020795],[127.0676466,37.6023064],[127.0677331,37.6025842],[127.0677663,37.6027056],[127.0678279,37.6029305],[127.0678946,37.6029176],[127.0679182,37.6030121],[127.0678602,37.6030211],[127.0678166,37.6030278],[127.0677457,37.6030388],[127.067694,37.6030469],[127.0676181,37.6030587],[127.0675859,37.6030637],[127.0675364,37.6028881],[127.0675901,37.602876],[127.0675607,37.6027674],[127.0675532,37.6027396],[127.0675247,37.6026348],[127.0674716,37.6024406],[127.0673687,37.6021255],[127.0672173,37.6017321]]]}, "properties": {"osm_id": 330258696, "osm_type": "ways_poly", "railway": null, "operator": "한국철도공사", "layer": null, "public_transport": null, "building": "train_station", "name": "신이문역", "amenity": null}},{"type": "Feature", "geometry": {"type":"Polygon","coordinates":[[[126.8205144,37.6190484],[126.8207923,37.6188234],[126.8205278,37.6186185],[126.8206368,37.6185302],[126.8210672,37.6188638],[126.8209542,37.6189553],[126.8210298,37.6190139],[126.821298,37.6187968],[126.8214443,37.6189102],[126.8211002,37.6191887],[126.8212152,37.6192779],[126.8211137,37.61936],[126.8209992,37.6192712],[126.8208097,37.6194246],[126.8206618,37.6193099],[126.8207548,37.6192347],[126.8205144,37.6190484]]]}, "properties": {"osm_id": 483500411, "osm_type": "ways_poly", "railway": null, "operator": "한국철도공사", "layer": "1", "public_transport": null, "building": "train_station", "name": null, "amenity": null}},{"type": "Feature", "geometry": {"type":"Polygon","coordinates":[[[127.1142338,37.6331443],[127.1143068,37.6331268],[127.1143401,37.6331188],[127.1143815,37.6331088],[127.1144078,37.6331025],[127.1144993,37.6330805],[127.1147582,37.6337433],[127.1149821,37.634287],[127.1151296,37.6346311],[127.1152772,37.6349455],[127.1152023,37.6349671],[127.1151694,37.6349767],[127.1151252,37.6349894],[127.1150862,37.6350007],[127.1150492,37.6350114],[127.114738,37.6343359],[127.1144993,37.6337794],[127.1142836,37.6332635],[127.1142338,37.6331443]]]}, "properties": {"osm_id": 456603894, "osm_type": "ways_poly", "railway": null, "operator": "한국철도공사", "layer": null, "public_transport": null, "building": "train_station", "name": null, "amenity": null}},{"type": "Feature", "geometry": {"type":"Polygon","coordinates":[[[127.046272,37.5474853],[127.0484147,37.5467778],[127.0485239,37.5469856],[127.047518,37.5473177],[127.0463811,37.547693],[127.046272,37.5474853]]]}, "properties": {"osm_id": 574636020, "osm_type": "ways_poly", "railway": null, "operator": null, "layer": "3", "public_transport": null, "building": "train_station", "name": null, "amenity": null}},{"type": "Feature", "geometry": {"type":"Polygon","coordinates":[[[127.057507,37.5895742],[127.0575329,37.5895424],[127.0575574,37.5895133],[127.0576186,37.5894392],[127.0576319,37.5894215],[127.0576588,37.5893896],[127.0577152,37.5894188],[127.0577525,37.5893746],[127.0582802,37.5896485],[127.0587335,37.5898838],[127.0586846,37.589943],[127.0588032,37.5900046],[127.0586584,37.5901797],[127.0585219,37.5901089],[127.0585049,37.5901294],[127.0582082,37.5899754],[127.0581315,37.5900682],[127.0579855,37.5899923],[127.0577117,37.5898548],[127.0576544,37.5899258],[127.0575743,37.5898852],[127.0576766,37.5897584],[127.0576334,37.589736],[127.057689,37.5896687],[127.057507,37.5895742]]]}, "properties": {"osm_id": 328800337, "osm_type": "ways_poly", "railway": null, "operator": "한국철도공사", "layer": "2", "public_transport": null, "building": "train_station", "name": null, "amenity": null}},{"type": "Feature", "geometry": {"type":"Polygon","coordinates":[[[127.0666716,37.60069],[127.0667791,37.6006829],[127.0668525,37.6008035],[127.066745,37.6008446],[127.0666716,37.60069]]]}, "properties": {"osm_id": 425322315, "osm_type": "ways_poly", "railway": null, "operator": null, "layer": "1", "public_transport": null, "building": "train_station", "name": null, "amenity": null}},{"type": "Feature", "geometry": {"type":"Polygon","coordinates":[[[127.0610699,37.6242298],[127.061203,37.6239371],[127.0611456,37.6239196],[127.0612195,37.6237393],[127.0612839,37.6237579],[127.0613623,37.6235736],[127.0614765,37.6233193],[127.0615057,37.6233266],[127.0615348,37.6233339],[127.0616386,37.6231016],[127.0617101,37.6229633],[127.0617622,37.6229782],[127.0617567,37.6229922],[127.061782,37.6229964],[127.061856,37.6230069],[127.061834,37.6230552],[127.0612699,37.6242903],[127.0610699,37.6242298]]]}, "properties": {"osm_id": 749687604, "osm_type": "ways_poly", "railway": null, "operator": null, "layer": null, "public_transport": null, "building": "train_station", "name": null, "amenity": null}},{"type": "Feature", "geometry": {"type":"Polygon","coordinates":[[[127.0549716,37.5447779],[127.0571716,37.5441314],[127.0572708,37.5443435],[127.0550708,37.5449901],[127.0549716,37.5447779]]]}, "properties": {"osm_id": 574636021, "osm_type": "ways_poly", "railway": null, "operator": "서울교통공사", "layer": "3", "public_transport": null, "building": "train_station", "name": null, "amenity": null}},{"type": "Feature", "geometry": {"type":"Polygon","coordinates":[[[126.8822604,37.4817197],[126.8824364,37.4813246],[126.8823039,37.4812885],[126.882315,37.4812652],[126.8823271,37.4812387],[126.88234,37.4812087],[126.8825416,37.4812646],[126.8823949,37.4815833],[126.8824404,37.481596],[126.8825206,37.4814162],[126.8828291,37.4815028],[126.8827854,37.4816008],[126.8828258,37.4816122],[126.8828336,37.4815948],[126.8828739,37.4816061],[126.8828541,37.4816506],[126.8828269,37.481643],[126.8828141,37.4816717],[126.882837,37.4816781],[126.88286,37.4816845],[126.8827794,37.4818653],[126.8826657,37.4818334],[126.8827069,37.4817409],[126.8824144,37.4816588],[126.8823732,37.4817513],[126.8822604,37.4817197]]]}, "properties": {"osm_id": 314952423, "osm_type": "ways_poly", "railway": null, "operator": null, "layer": "1", "public_transport": null, "building": "train_station", "name": null, "amenity": null}},{"type": "Feature", "geometry": {"type":"Polygon","coordinates":[[[127.103265,37.5214809],[127.1034587,37.5211372],[127.1034313,37.5211275],[127.1039902,37.5201355],[127.1040176,37.5201452],[127.1042185,37.5197886],[127.1044019,37.5198536],[127.1042019,37.5202086],[127.1042268,37.5202174],[127.1036691,37.5212073],[127.1036442,37.5211985],[127.1034485,37.5215459],[127.103265,37.5214809]]]}, "properties": {"osm_id": 609080980, "osm_type": "ways_poly", "railway": null, "operator": null, "layer": "2", "public_transport": null, "building": "train_station", "name": null, "amenity": null}},{"type": "Feature", "geometry": {"type":"Polygon","coordinates":[[[127.0666194,37.6007744],[127.0666845,37.600754],[127.0667202,37.6008258],[127.0666993,37.6008323],[127.0666843,37.6008021],[127.0666715,37.6008061],[127.0666861,37.6008355],[127.0666547,37.6008454],[127.0666194,37.6007744]]]}, "properties": {"osm_id": 468280431, "osm_type": "ways_poly", "railway": null, "operator": null, "layer": "1", "public_transport": null, "building": "train_station", "name": null, "amenity": null}},{"type": "Feature", "geometry": {"type":"Polygon","coordinates":[[[127.1409784,37.6023682],[127.1409973,37.60232],[127.1410966,37.6023414],[127.1411151,37.602296],[127.1411372,37.6022387],[127.1412807,37.602258],[127.1413452,37.6022667],[127.1415331,37.6023087],[127.1417162,37.6023626],[127.141847,37.6024011],[127.1418344,37.6024392],[127.1417475,37.6027018],[127.1418946,37.6027336],[127.1419242,37.6027826],[127.1422542,37.6028577],[127.1421532,37.6031387],[127.141725,37.6030444],[127.1418063,37.6027953],[127.1414183,37.6027153],[127.1414456,37.6026424],[127.1416257,37.6026818],[127.1416543,37.6026179],[127.1410487,37.6024798],[127.1410783,37.6023948],[127.1409784,37.6023682]]]}, "properties": {"osm_id": 1456482638, "osm_type": "ways_poly", "railway": null, "operator": null, "layer": null, "public_transport": null, "building": "train_station", "name": "구리역 환승대합실", "amenity": null}},{"type": "Feature", "geometry": {"type":"Polygon","coordinates":[[[127.0850162,37.5369408],[127.0850288,37.5369095],[127.0850764,37.5367908],[127.0851396,37.5368068],[127.085156,37.5367658],[127.0858358,37.5369373],[127.0858194,37.5369783],[127.0866212,37.5371806],[127.0866374,37.5371402],[127.0868153,37.5371851],[127.0871728,37.5372753],[127.0871566,37.5373157],[127.0873442,37.5373631],[127.087284,37.5375131],[127.087102,37.5374672],[127.0870868,37.5375049],[127.0865443,37.537368],[127.0865594,37.5373303],[127.0857587,37.5371282],[127.085742,37.5371697],[127.0850648,37.5369988],[127.0850815,37.5369573],[127.0850162,37.5369408]]]}, "properties": {"osm_id": 628519403, "osm_type": "ways_poly", "railway": null, "operator": null, "layer": "1", "public_transport": null, "building": "train_station", "name": null, "amenity": null}},{"type": "Feature", "geometry": {"type":"Polygon","coordinates":[[[126.843855,37.4946205],[126.8438777,37.4945571],[126.8438849,37.494537],[126.8442497,37.4946193],[126.8442958,37.4944907],[126.8442637,37.4944834],[126.8443133,37.4943452],[126.8443444,37.4943523],[126.8443773,37.4942605],[126.8443462,37.4942535],[126.8443747,37.4941739],[126.8444107,37.494182],[126.8444865,37.4939705],[126.8441662,37.4938982],[126.8441828,37.4938518],[126.8448782,37.4940088],[126.8448616,37.4940551],[126.844562,37.4939875],[126.8444862,37.494199],[126.8445815,37.4942206],[126.8445783,37.4942296],[126.8445969,37.4942338],[126.8446001,37.4942248],[126.8447428,37.4942569],[126.8447348,37.4942792],[126.8449342,37.4943242],[126.8448669,37.4945119],[126.844828,37.4945031],[126.8448203,37.4945249],[126.8448382,37.4945289],[126.8447999,37.4946356],[126.8446215,37.4945953],[126.8446318,37.4945665],[126.8443916,37.4945123],[126.8443316,37.4946796],[126.8450076,37.4948213],[126.8449965,37.4948542],[126.8449906,37.4948718],[126.8443155,37.4947244],[126.843855,37.4946205]]]}, "properties": {"osm_id": 311725629, "osm_type": "ways_poly", "railway": null, "operator": null, "layer": "1", "public_transport": null, "building": "train_station", "name": null, "amenity": null}},{"type": "Feature", "geometry": {"type":"Polygon","coordinates":[[[127.0473395,37.6532153],[127.0479672,37.6517311],[127.0480492,37.6515575],[127.0481793,37.651593],[127.0482683,37.6513993],[127.0484761,37.6514584],[127.0488318,37.6515599],[127.0486868,37.6519171],[127.0487784,37.651953],[127.0481811,37.6534383],[127.0479224,37.6533698],[127.0478789,37.6533582],[127.0478316,37.6533457],[127.0477828,37.6533328],[127.0476693,37.6533027],[127.0476291,37.653292],[127.0475035,37.6532588],[127.0474531,37.6532454],[127.0473395,37.6532153]]]}, "properties": {"osm_id": 471763817, "osm_type": "ways_poly", "railway": null, "operator": "한국철도공사", "layer": "1", "public_transport": null, "building": "train_station", "name": null, "amenity": null}},{"type": "Feature", "geometry": {"type":"Polygon","coordinates":[[[127.0589155,37.5099151],[127.0589373,37.5098758],[127.0593547,37.5091242],[127.0593854,37.5090688],[127.0599667,37.5092719],[127.0594969,37.5101182],[127.0589155,37.5099151]]]}, "properties": {"osm_id": 74056386, "osm_type": "ways_poly", "railway": null, "operator": null, "layer": null, "public_transport": "station", "building": "yes", "name": "한국도심공항터미널(KCAT)", "amenity": "bus_station"}},{"type": "Feature", "geometry": {"type":"Polygon","coordinates":[[[126.912242,37.4870653],[126.9123801,37.4868914],[126.912967,37.487206],[126.9143635,37.4880848],[126.9142017,37.4882398],[126.9128382,37.4873831],[126.912242,37.4870653]]]}, "properties": {"osm_id": 613174312, "osm_type": "ways_poly", "railway": null, "operator": null, "layer": "1", "public_transport": null, "building": "train_station", "name": "신대방역", "amenity": null}},{"type": "Feature", "geometry": {"type":"Polygon","coordinates":[[[127.0049482,37.505573],[127.0056059,37.5042074],[127.0059063,37.5042985],[127.0060542,37.5043433],[127.006189,37.5043842],[127.0056645,37.5054728],[127.0066422,37.5057693],[127.0071903,37.5059355],[127.0085032,37.5063336],[127.0083701,37.50661],[127.0049482,37.505573]]]}, "properties": {"osm_id": 309352819, "osm_type": "ways_poly", "railway": null, "operator": null, "layer": null, "public_transport": "station", "building": "yes", "name": "서울고속버스터미널 (경부선/영동선)", "amenity": "bus_station"}},{"type": "Feature", "geometry": {"type":"Polygon","coordinates":[[[127.113153,37.5177084],[127.1131673,37.5176723],[127.1131798,37.5176407],[127.1133024,37.517601],[127.1133035,37.5176362],[127.1132979,37.5176719],[127.1132863,37.5177063],[127.1132657,37.5177431],[127.1132406,37.5177741],[127.1132102,37.5178018],[127.113153,37.5177084]]]}, "properties": {"osm_id": 624176423, "osm_type": "ways_poly", "railway": null, "operator": null, "layer": null, "public_transport": null, "building": "train_station", "name": null, "amenity": null}},{"type": "Feature", "geometry": {"type":"Polygon","coordinates":[[[127.1388407,37.4630984],[127.1396513,37.4627063],[127.1397718,37.4628959],[127.1396504,37.4629271],[127.1395212,37.4629718],[127.1394362,37.4630067],[127.1393722,37.4630389],[127.1393113,37.4630736],[127.1392557,37.4631126],[127.1392079,37.4631552],[127.1391732,37.4632094],[127.1391543,37.4632745],[127.1391415,37.4633199],[127.1390928,37.4633439],[127.1390509,37.4633651],[127.1388407,37.4630984]]]}, "properties": {"osm_id": 1013468756, "osm_type": "ways_poly", "railway": null, "operator": null, "layer": null, "public_transport": null, "building": "train_station", "name": null, "amenity": null}},{"type": "Feature", "geometry": {"type":"Polygon","coordinates":[[[127.1264633,37.6420348],[127.1265015,37.6420234],[127.1267188,37.6420468],[127.1267296,37.642029],[127.1267509,37.6419941],[127.1267706,37.6419618],[127.1267853,37.6419376],[127.1268223,37.6418769],[127.1277924,37.6422977],[127.1282423,37.6424928],[127.1285481,37.6426255],[127.1284867,37.6426676],[127.1284107,37.6427197],[127.1283827,37.6427388],[127.1283587,37.6427553],[127.1282476,37.6427147],[127.1278051,37.6425268],[127.1277863,37.6425416],[127.1275956,37.64246],[127.1272203,37.6422995],[127.1271989,37.6423123],[127.1264633,37.6420348]]]}, "properties": {"osm_id": 468952429, "osm_type": "ways_poly", "railway": null, "operator": null, "layer": null, "public_transport": null, "building": "train_station", "name": null, "amenity": null}},{"type": "Feature", "geometry": {"type":"Polygon","coordinates":[[[126.8398112,37.6627031],[126.8398596,37.6626625],[126.8400407,37.6627977],[126.8399923,37.6628383],[126.8399102,37.662777],[126.8398112,37.6627031]]]}, "properties": {"osm_id": 1056169510, "osm_type": "ways_poly", "railway": null, "operator": null, "layer": null, "public_transport": null, "building": "train_station", "name": "원릉역", "amenity": null}},{"type": "Feature", "geometry": {"type":"Polygon","coordinates":[[[126.9005073,37.4851987],[126.9009101,37.4850259],[126.900929,37.4850525],[126.9009463,37.4850782],[126.9008089,37.485139],[126.9008702,37.4852356],[126.9009694,37.4853917],[126.9013654,37.4852433],[126.9015777,37.4851751],[126.9017496,37.4851243],[126.9019164,37.4850869],[126.9021135,37.4850374],[126.9022753,37.4850093],[126.9022669,37.4849732],[126.9021249,37.4849956],[126.9021189,37.4849797],[126.9021128,37.4849617],[126.9023258,37.4849291],[126.9023427,37.4849933],[126.9025702,37.4849612],[126.9027673,37.4849665],[126.9028027,37.4851149],[126.902673,37.4851551],[126.9022702,37.4852166],[126.9019197,37.4852951],[126.9015996,37.4853877],[126.9010908,37.4855681],[126.9012071,37.4857477],[126.9013444,37.4856914],[126.9013566,37.4857102],[126.9013708,37.4857322],[126.9010325,37.4858687],[126.9010199,37.4858491],[126.9010074,37.4858298],[126.9011415,37.4857748],[126.9010249,37.485595],[126.9008245,37.4856845],[126.9006122,37.4857487],[126.9005094,37.4856351],[126.900688,37.4855121],[126.9008784,37.4854318],[126.9007792,37.4852745],[126.9007183,37.4851779],[126.9005426,37.4852513],[126.9005246,37.4852244],[126.9005073,37.4851987]]]}, "properties": {"osm_id": 552128777, "osm_type": "ways_poly", "railway": null, "operator": null, "layer": "1", "public_transport": null, "building": "train_station", "name": "구로디지털단지", "amenity": null}},{"type": "Feature", "geometry": {"type":"Polygon","coordinates":[[[126.8111784,37.4851776],[126.8113173,37.4848977],[126.8116901,37.4850236],[126.8116929,37.4850178],[126.8117021,37.4849996],[126.8117205,37.4849861],[126.8117329,37.484985],[126.8117292,37.484962],[126.8117637,37.4849579],[126.8117731,37.4849797],[126.8118003,37.4849799],[126.8119092,37.4850207],[126.8119387,37.4850244],[126.8120373,37.485059],[126.8120534,37.4850776],[126.8120655,37.4851106],[126.812056,37.4851335],[126.81205,37.4851478],[126.8119702,37.4851196],[126.8118254,37.4853974],[126.8119082,37.4854245],[126.8118898,37.4854517],[126.8118714,37.4854664],[126.8118328,37.4854751],[126.8117924,37.4854754],[126.8117161,37.4854522],[126.8117047,37.485483],[126.8115813,37.4854463],[126.8115512,37.4854272],[126.8115518,37.4854096],[126.8115592,37.4853889],[126.8115438,37.4853585],[126.8115454,37.4853271],[126.8115548,37.4852954],[126.8111784,37.4851776]]]}, "properties": {"osm_id": 311595607, "osm_type": "ways_poly", "railway": null, "operator": null, "layer": "1", "public_transport": null, "building": "train_station", "name": null, "amenity": null}},{"type": "Feature", "geometry": {"type":"Polygon","coordinates":[[[126.8999028,37.5776104],[126.89999,37.5775504],[126.9002682,37.5778046],[126.9004471,37.5776816],[126.9006456,37.5778644],[126.9005142,37.5779516],[126.9005598,37.5779984],[126.9003747,37.5781195],[126.9003237,37.578077],[126.900195,37.578162],[126.9000019,37.5779877],[126.900181,37.5778645],[126.8999028,37.5776104]]]}, "properties": {"osm_id": 413943302, "osm_type": "ways_poly", "railway": null, "operator": null, "layer": "1", "public_transport": null, "building": "train_station", "name": null, "amenity": null}},{"type": "Feature", "geometry": {"type":"Polygon","coordinates":[[[126.7952595,37.4829115],[126.7952807,37.4825967],[126.7959572,37.4826254],[126.795955,37.4826581],[126.7959496,37.482769],[126.7959482,37.4828028],[126.795943,37.4829111],[126.795941,37.4829405],[126.7952595,37.4829115]]]}, "properties": {"osm_id": 311595606, "osm_type": "ways_poly", "railway": null, "operator": null, "layer": null, "public_transport": null, "building": "train_station", "name": "소사역", "amenity": null}},{"type": "Feature", "geometry": {"type":"Polygon","coordinates":[[[126.9063324,37.5157384],[126.9064953,37.5154969],[126.9065573,37.5155232],[126.9065769,37.5154942],[126.9065996,37.5154605],[126.9066693,37.5153572],[126.906695,37.5153191],[126.9067558,37.5152289],[126.9067818,37.5151904],[126.9067993,37.5151645],[126.9067373,37.5151382],[126.9067841,37.5150688],[126.9068119,37.5150277],[126.9068741,37.5149356],[126.9068964,37.5149026],[126.9069141,37.5148763],[126.906937,37.5148423],[126.9069594,37.5148091],[126.9069887,37.5147657],[126.9070673,37.5146491],[126.9086353,37.5153143],[126.9086606,37.5153312],[126.9086776,37.5153516],[126.9086816,37.5153753],[126.9086782,37.515402],[126.9086496,37.5154454],[126.9086303,37.5154713],[126.908598,37.5155146],[126.9085732,37.5155479],[126.9085474,37.5155826],[126.908518,37.515622],[126.908466,37.5156918],[126.9089941,37.5159438],[126.9089843,37.5159564],[126.9089664,37.5159794],[126.9089397,37.5160138],[126.9088114,37.5161787],[126.9087801,37.5162191],[126.908711,37.5163079],[126.9086796,37.5163483],[126.9086332,37.516408],[126.9086388,37.5164312],[126.9086348,37.5164371],[126.90862,37.5164589],[126.9085851,37.5164659],[126.9080085,37.5162206],[126.9078556,37.5164525],[126.9078288,37.5164702],[126.9077939,37.5164766],[126.9077563,37.5164738],[126.9066486,37.5160192],[126.9066298,37.5160057],[126.9066191,37.5159802],[126.9066191,37.5159568],[126.9066325,37.5159319],[126.9066674,37.5158806],[126.9063324,37.5157384]]]}, "properties": {"osm_id": 624851882, "osm_type": "ways_poly", "railway": null, "operator": null, "layer": "1", "public_transport": null, "building": "train_station", "name": "영등포역", "amenity": null}},{"type": "Feature", "geometry": {"type":"Polygon","coordinates":[[[126.9169683,37.5170207],[126.9170213,37.5169068],[126.9173435,37.5168514],[126.9173669,37.5169244],[126.9176502,37.5168661],[126.9176635,37.5169076],[126.9173803,37.5169659],[126.9174029,37.517038],[126.9176873,37.5169829],[126.9177106,37.5170582],[126.9174262,37.5171133],[126.9174444,37.5171728],[126.9177291,37.5171185],[126.9177487,37.517183],[126.917464,37.5172373],[126.9170323,37.5172766],[126.9169683,37.5170207]]]}, "properties": {"osm_id": 315262460, "osm_type": "ways_poly", "railway": null, "operator": null, "layer": "1", "public_transport": null, "building": "train_station", "name": null, "amenity": null}},{"type": "Feature", "geometry": {"type":"Polygon","coordinates":[[[126.7802792,37.4841513],[126.7803759,37.4841379],[126.7803735,37.4841025],[126.7803911,37.4840783],[126.7804311,37.4840587],[126.782267,37.4838073],[126.7832993,37.483666],[126.7833439,37.4836655],[126.78338,37.483684],[126.7833993,37.4837131],[126.7842943,37.4835747],[126.7843639,37.4838581],[126.7844443,37.4838578],[126.78451,37.4838942],[126.7845453,37.4839594],[126.7845335,37.4840125],[126.7844901,37.4840601],[126.7844186,37.4840856],[126.7834132,37.4842381],[126.782769,37.4843358],[126.782201,37.484422],[126.7812072,37.4845727],[126.7811397,37.4845705],[126.7810763,37.4845407],[126.7810399,37.4845006],[126.7810355,37.4844762],[126.7810305,37.4844484],[126.7810458,37.4844028],[126.7810787,37.4843618],[126.781145,37.484342],[126.781097,37.4841241],[126.7803011,37.4842343],[126.7802792,37.4841513]]]}, "properties": {"osm_id": 191947328, "osm_type": "ways_poly", "railway": null, "operator": null, "layer": "1", "public_transport": null, "building": "train_station", "name": null, "amenity": null}},{"type": "Feature", "geometry": {"type":"Polygon","coordinates":[[[126.7842663,37.4852558],[126.7843625,37.4852409],[126.784437,37.4855425],[126.7843409,37.4855575],[126.7842663,37.4852558]]]}, "properties": {"osm_id": 1044403034, "osm_type": "ways_poly", "railway": null, "operator": null, "layer": null, "public_transport": "station", "building": "yes", "name": "소신여객 부천역북부", "amenity": "bus_station"}},{"type": "Feature", "geometry": {"type":"Polygon","coordinates":[[[127.1003111,37.5124469],[127.1009653,37.5116326],[127.1011148,37.5115908],[127.1013994,37.5112343],[127.1013708,37.5111935],[127.1019246,37.510521],[127.1021076,37.5106078],[127.1023308,37.5102918],[127.1025387,37.5100784],[127.102849,37.510247],[127.1020926,37.5111163],[127.1028917,37.5115383],[127.1027317,37.5117346],[127.1019645,37.5113526],[127.1015819,37.5118368],[127.1015667,37.5119317],[127.1012179,37.5123739],[127.1009793,37.5126401],[127.1003111,37.5124469]]]}, "properties": {"osm_id": 1205924129, "osm_type": "ways_poly", "railway": null, "operator": null, "layer": "-1", "public_transport": "station", "building": null, "name": "잠실광역환승센터", "amenity": "bus_station"}},{"type": "Feature", "geometry": {"type":"Polygon","coordinates":[[[126.9019464,37.5340858],[126.902096,37.5340017],[126.9026099,37.5346478],[126.9029062,37.5350393],[126.9031403,37.535342],[126.9032637,37.5354936],[126.9033644,37.535616],[126.903192,37.5357076],[126.9021286,37.5343576],[126.9019464,37.5340858]]]}, "properties": {"osm_id": 953204654, "osm_type": "ways_poly", "railway": null, "operator": null, "layer": "1", "public_transport": null, "building": "train_station", "name": "당산역", "amenity": null}},{"type": "Feature", "geometry": {"type":"Polygon","coordinates":[[[126.9425904,37.5140322],[126.9425971,37.5139892],[126.9428202,37.5140113],[126.9428254,37.5139779],[126.9428277,37.5139637],[126.942869,37.5139668],[126.942878,37.513888],[126.9430303,37.5138959],[126.9430122,37.5139868],[126.9432376,37.5140042],[126.9431953,37.5142738],[126.9431205,37.5142664],[126.9431181,37.5142816],[126.9429341,37.5142634],[126.9428798,37.5146086],[126.942795,37.5146002],[126.9426108,37.514582],[126.9426184,37.5145337],[126.9428026,37.5145519],[126.9428189,37.5144481],[126.9426339,37.5144298],[126.9426396,37.5143938],[126.9426451,37.5143585],[126.9428301,37.5143768],[126.9428435,37.5142912],[126.9426576,37.5142728],[126.9426622,37.5142438],[126.9426666,37.5142159],[126.9428525,37.5142343],[126.9428643,37.5141594],[126.9426776,37.5141409],[126.9426881,37.514074],[126.9428748,37.5140924],[126.9428798,37.5140608],[126.9425904,37.5140322]]]}, "properties": {"osm_id": 299211053, "osm_type": "ways_poly", "railway": null, "operator": "한국철도공사", "layer": "1", "public_transport": null, "building": "train_station", "name": null, "amenity": null}},{"type": "Feature", "geometry": {"type":"Polygon","coordinates":[[[126.8336645,37.612423],[126.8336653,37.6123427],[126.8337331,37.6123432],[126.833737,37.6119498],[126.8338228,37.6119503],[126.8338231,37.6119168],[126.834161,37.6119189],[126.8342888,37.6119197],[126.8343136,37.6119198],[126.834313,37.6119816],[126.8343063,37.6123324],[126.8343516,37.6123329],[126.8343501,37.6124125],[126.8342139,37.6124109],[126.8342136,37.6124282],[126.8339791,37.6124253],[126.8339787,37.6124451],[126.8339699,37.6124577],[126.8339513,37.6124703],[126.8339291,37.6124753],[126.8339078,37.6124725],[126.8338892,37.6124605],[126.8338795,37.6124451],[126.8338797,37.6124243],[126.8336645,37.612423]]]}, "properties": {"osm_id": 407869047, "osm_type": "ways_poly", "railway": null, "operator": "한국철도공사", "layer": "1", "public_transport": null, "building": "train_station", "name": null, "amenity": null}},{"type": "Feature", "geometry": {"type":"Polygon","coordinates":[[[127.0680901,37.5407271],[127.0685666,37.5405641],[127.0685434,37.5405213],[127.0683881,37.5405744],[127.0683731,37.5405467],[127.0685988,37.5404697],[127.0686121,37.5404942],[127.0701004,37.5399871],[127.0700902,37.5399685],[127.0703617,37.5398753],[127.0703831,37.5399144],[127.0702763,37.539951],[127.0703824,37.5401468],[127.0704464,37.5401252],[127.0704638,37.5401574],[127.0698365,37.54037],[127.0698255,37.5403495],[127.0689867,37.5406359],[127.0689761,37.5406163],[127.0687291,37.5407006],[127.0687794,37.540793],[127.0687297,37.5408103],[127.0686879,37.5408248],[127.0686202,37.5407087],[127.0685494,37.5407328],[127.068542,37.5407192],[127.0681572,37.5408506],[127.0680901,37.5407271]]]}, "properties": {"osm_id": 628519406, "osm_type": "ways_poly", "railway": null, "operator": "서울교통공사", "layer": "1", "public_transport": null, "building": "train_station", "name": "건대입구", "amenity": null}},{"type": "Feature", "geometry": {"type":"Polygon","coordinates":[[[126.8682262,37.6034043],[126.8683098,37.6033325],[126.8683033,37.6033277],[126.8683634,37.603276],[126.8682717,37.6032091],[126.8683648,37.603129],[126.8684211,37.6031701],[126.8685598,37.6030507],[126.8686046,37.6030834],[126.8687266,37.6031724],[126.8686345,37.6032517],[126.8686588,37.6032694],[126.86846,37.6034403],[126.8684357,37.6034226],[126.8683511,37.6034954],[126.8682262,37.6034043]]]}, "properties": {"osm_id": 623896853, "osm_type": "ways_poly", "railway": null, "operator": null, "layer": null, "public_transport": null, "building": "train_station", "name": null, "amenity": null}},{"type": "Feature", "geometry": {"type":"Polygon","coordinates":[[[127.0941089,37.5359442],[127.0944373,37.5354291],[127.094405,37.5354161],[127.0950202,37.5344511],[127.0950524,37.5344641],[127.0951817,37.5342612],[127.095343,37.5343259],[127.0952172,37.5345234],[127.0952389,37.5345321],[127.0946222,37.5354995],[127.0945965,37.5354892],[127.0942662,37.5360073],[127.0941089,37.5359442]]]}, "properties": {"osm_id": 628519396, "osm_type": "ways_poly", "railway": null, "operator": null, "layer": null, "public_transport": null, "building": "train_station", "name": null, "amenity": null}},{"type": "Feature", "geometry": {"type":"Polygon","coordinates":[[[127.0937822,37.5349328],[127.0943028,37.5341172],[127.0944096,37.5341582],[127.0944346,37.5341087],[127.0944617,37.5340981],[127.0945476,37.5341308],[127.0945443,37.5341533],[127.0946368,37.5341924],[127.0946124,37.5342375],[127.0947138,37.534279],[127.0941915,37.535106],[127.0940779,37.5350627],[127.0940506,37.535106],[127.0939529,37.5350609],[127.0939347,37.5350807],[127.0938507,37.5350429],[127.0938896,37.5349736],[127.0937822,37.5349328]]]}, "properties": {"osm_id": 175320328, "osm_type": "ways_poly", "railway": null, "operator": null, "layer": "1", "public_transport": "station", "building": "yes", "name": "동서울종합터미널", "amenity": "bus_station"}},{"type": "Feature", "geometry": {"type":"Polygon","coordinates":[[[126.8235703,37.4925478],[126.8235991,37.4924845],[126.8237019,37.4925139],[126.8237238,37.4924659],[126.8236227,37.4924369],[126.8237128,37.4922386],[126.8240563,37.492337],[126.8240782,37.492289],[126.8237409,37.4921924],[126.8237763,37.4921147],[126.8238711,37.4921419],[126.8238615,37.4921631],[126.8241027,37.4922321],[126.8241115,37.4922129],[126.8242116,37.4922416],[126.8242019,37.4922627],[126.8244303,37.4923281],[126.824439,37.4923089],[126.824547,37.4923398],[126.8245134,37.4924136],[126.8241815,37.4923186],[126.8241595,37.4923668],[126.8244953,37.4924629],[126.8244073,37.4926564],[126.8243138,37.4926296],[126.8242883,37.4926856],[126.8243789,37.4927115],[126.8243517,37.4927715],[126.8240188,37.4926762],[126.8239894,37.4926821],[126.8239577,37.4926787],[126.823929,37.4926637],[126.8239155,37.4926466],[126.8235703,37.4925478]]]}, "properties": {"osm_id": 311725628, "osm_type": "ways_poly", "railway": null, "operator": null, "layer": "1", "public_transport": null, "building": "train_station", "name": "온수역", "amenity": null}},{"type": "Feature", "geometry": {"type":"Polygon","coordinates":[[[126.797629,37.5777962],[126.7976598,37.5776986],[126.797706,37.5777034],[126.7977337,37.5776912],[126.7977676,37.5776058],[126.7987566,37.5778524],[126.7987536,37.5778915],[126.7988029,37.5779037],[126.7988398,37.5779305],[126.7988645,37.5779672],[126.7988645,37.5780087],[126.7988614,37.5780453],[126.7988398,37.578077],[126.798809,37.5781039],[126.798772,37.5781234],[126.7987359,37.578131],[126.7986996,37.5781308],[126.7986621,37.5781228],[126.7986365,37.5781723],[126.7980876,37.5780281],[126.7980117,37.5780086],[126.7976752,37.5779256],[126.7976998,37.5778377],[126.797629,37.5777962]]]}, "properties": {"osm_id": 1055850971, "osm_type": "ways_poly", "railway": null, "operator": null, "layer": null, "public_transport": "station", "building": "yes", "name": "개화역광역환승센터", "amenity": "bus_station"}},{"type": "Feature", "geometry": {"type":"Polygon","coordinates":[[[127.00304,37.5032084],[127.0031841,37.5029024],[127.0046109,37.5033606],[127.0045884,37.5034166],[127.0045481,37.5035166],[127.0040543,37.5045421],[127.0037098,37.505257],[127.0033169,37.5051402],[127.0033266,37.5051193],[127.0033057,37.5051104],[127.0033277,37.5050618],[127.00335,37.5050233],[127.0033631,37.5049981],[127.0033851,37.5049474],[127.0040086,37.5036735],[127.0038662,37.5034621],[127.00304,37.5032084]]]}, "properties": {"osm_id": 356127040, "osm_type": "ways_poly", "railway": null, "operator": null, "layer": null, "public_transport": "station", "building": "yes", "name": "센트럴시티터미널(호남선)", "amenity": "bus_station"}},{"type": "Feature", "geometry": {"type":"Polygon","coordinates":[[[127.0337057,37.5489534],[127.0339015,37.5488769],[127.0346445,37.5499168],[127.0349341,37.5503548],[127.0351273,37.5506036],[127.0352614,37.5507461],[127.0350307,37.5508907],[127.034679,37.5504377],[127.0337057,37.5489534]]]}, "properties": {"osm_id": 405481028, "osm_type": "ways_poly", "railway": null, "operator": "한국철도공사", "layer": "2", "public_transport": null, "building": "train_station", "name": null, "amenity": null}},{"type": "Feature", "geometry": {"type":"Polygon","coordinates":[[[127.0350307,37.5508907],[127.0352614,37.5507461],[127.0353794,37.5508652],[127.0352849,37.5510215],[127.0352258,37.5511696],[127.0351487,37.551165],[127.035205,37.5510587],[127.0350307,37.5508907]]]}, "properties": {"osm_id": 405481030, "osm_type": "ways_poly", "railway": null, "operator": "한국철도공사", "layer": "2", "public_transport": null, "building": "train_station", "name": null, "amenity": null}},{"type": "Feature", "geometry": {"type":"Polygon","coordinates":[[[127.0176645,37.5399295],[127.0178494,37.5397659],[127.0181637,37.5400126],[127.0185858,37.5402764],[127.0198182,37.5410484],[127.0196549,37.5412121],[127.018481,37.5404866],[127.018025,37.5401861],[127.0176645,37.5399295]]]}, "properties": {"osm_id": 407871381, "osm_type": "ways_poly", "railway": null, "operator": "한국철도공사", "layer": null, "public_transport": null, "building": "train_station", "name": "옥수역", "amenity": null}},{"type": "Feature", "geometry": {"type":"Polygon","coordinates":[[[127.0169093,37.5425194],[127.0170316,37.5421655],[127.0172934,37.54165],[127.0175466,37.5412399],[127.0178339,37.540791],[127.0179586,37.5408622],[127.0175251,37.5415071],[127.01748,37.5415984],[127.0172934,37.5419766],[127.0170852,37.5425568],[127.0169093,37.5425194]]]}, "properties": {"osm_id": 1204649561, "osm_type": "ways_poly", "railway": null, "operator": null, "layer": "1", "public_transport": null, "building": "train_station", "name": null, "amenity": null}},{"type": "Feature", "geometry": {"type":"Polygon","coordinates":[[[126.9712849,37.5416325],[126.9712856,37.5415828],[126.9713624,37.5415829],[126.9713621,37.5416475],[126.9713619,37.5416584],[126.9713421,37.5416587],[126.9712853,37.5416586],[126.9712849,37.5416325]]]}, "properties": {"osm_id": 619341332, "osm_type": "ways_poly", "railway": null, "operator": null, "layer": null, "public_transport": null, "building": "train_station", "name": null, "amenity": null}},{"type": "Feature", "geometry": {"type":"Polygon","coordinates":[[[126.9414296,37.5599178],[126.9414371,37.5595076],[126.9414367,37.5594931],[126.942612,37.5595041],[126.9426698,37.5595046],[126.9427427,37.5595052],[126.9427408,37.5596234],[126.943347,37.5596453],[126.943331,37.5600836],[126.9428282,37.5600806],[126.9428318,37.5601115],[126.9427456,37.5601086],[126.9427457,37.5601206],[126.9426874,37.5601195],[126.9419027,37.5601043],[126.9419013,37.5600027],[126.9414299,37.559988],[126.9414296,37.5599178]]]}, "properties": {"osm_id": 230178502, "osm_type": "ways_poly", "railway": null, "operator": null, "layer": null, "public_transport": null, "building": "train_station", "name": null, "amenity": null}},{"type": "Feature", "geometry": {"type":"Polygon","coordinates":[[[126.9346525,37.5525797],[126.9351151,37.5522481],[126.9352937,37.5524047],[126.9348312,37.5527363],[126.9346525,37.5525797]]]}, "properties": {"osm_id": 539671808, "osm_type": "ways_poly", "railway": null, "operator": null, "layer": null, "public_transport": null, "building": "train_station", "name": "서강대역", "amenity": null}},{"type": "Feature", "geometry": {"type":"Polygon","coordinates":[[[126.9344508,37.5527129],[126.9345742,37.5526182],[126.934641,37.552673],[126.9345176,37.5527677],[126.9344508,37.5527129]]]}, "properties": {"osm_id": 539671809, "osm_type": "ways_poly", "railway": null, "operator": null, "layer": null, "public_transport": null, "building": "train_station", "name": null, "amenity": null}},{"type": "Feature", "geometry": {"type":"Polygon","coordinates":[[[127.1608238,37.6090327],[127.1610009,37.6088011],[127.1608399,37.608731],[127.160974,37.6085525],[127.161076,37.6086014],[127.1611806,37.608459],[127.1615124,37.6086073],[127.1615174,37.6086095],[127.1616607,37.6086736],[127.161607,37.6087501],[127.1615507,37.6087246],[127.161194,37.6092006],[127.1611326,37.6091734],[127.1611295,37.609172],[127.1608238,37.6090327]]]}, "properties": {"osm_id": 404546060, "osm_type": "ways_poly", "railway": null, "operator": null, "layer": "1", "public_transport": null, "building": "train_station", "name": null, "amenity": null}},{"type": "Feature", "geometry": {"type":"Polygon","coordinates":[[[126.8825707,37.5144453],[126.8828434,37.5143013],[126.8829279,37.5144021],[126.8828368,37.5144502],[126.882849,37.5144648],[126.8827636,37.5145099],[126.8827521,37.5144963],[126.882656,37.514547],[126.8825707,37.5144453]]]}, "properties": {"osm_id": 276687480, "osm_type": "ways_poly", "railway": null, "operator": null, "layer": null, "public_transport": null, "building": "train_station", "name": null, "amenity": null}},{"type": "Feature", "geometry": {"type":"Polygon","coordinates":[[[127.0662686,37.5308804],[127.0665321,37.5308052],[127.0669282,37.5316781],[127.0669787,37.5316637],[127.067002,37.5317151],[127.0670114,37.5317358],[127.0671799,37.5321074],[127.0671443,37.5321175],[127.0671917,37.532222],[127.067105,37.5322488],[127.0670305,37.5322682],[127.0669135,37.5323014],[127.0666868,37.5318018],[127.0662686,37.5308804]]]}, "properties": {"osm_id": 946455007, "osm_type": "ways_poly", "railway": null, "operator": "서울교통공사", "layer": "2", "public_transport": null, "building": "train_station", "name": null, "amenity": null}},{"type": "Feature", "geometry": {"type":"Polygon","coordinates":[[[126.9144076,37.5691812],[126.9145589,37.5691066],[126.9145957,37.5691536],[126.9144444,37.5692282],[126.9144076,37.5691812]]]}, "properties": {"osm_id": 607358409, "osm_type": "ways_poly", "railway": null, "operator": null, "layer": null, "public_transport": null, "building": "train_station", "name": null, "amenity": null}},{"type": "Feature", "geometry": {"type":"Polygon","coordinates":[[[127.1038188,37.4861684],[127.1040227,37.4857175],[127.1042286,37.4853417],[127.104387,37.4850608],[127.1044276,37.4850754],[127.1046124,37.4847974],[127.1046926,37.4847774],[127.104715,37.4848375],[127.104755,37.4847675],[127.1047379,37.4847586],[127.1046581,37.4847401],[127.1045797,37.4847055],[127.1045999,37.4846628],[127.1046277,37.4846233],[127.1047278,37.4846652],[127.1047949,37.4846782],[127.1049423,37.4847369],[127.1048877,37.4848209],[127.1048641,37.4848139],[127.104823,37.4848774],[127.1048961,37.4848607],[127.1049202,37.4849356],[127.1049812,37.4849305],[127.1050101,37.4849728],[127.1050958,37.4849427],[127.105115,37.4850119],[127.1050704,37.4850811],[127.1047933,37.4855015],[127.104623,37.4857447],[127.1043957,37.4856592],[127.1041709,37.4859964],[127.1041932,37.4860042],[127.1045296,37.4859896],[127.1045365,37.4860756],[127.1045077,37.4860765],[127.1045078,37.4861068],[127.1045194,37.486106],[127.1045186,37.4861366],[127.1041232,37.4861482],[127.1041233,37.4861175],[127.104136,37.4861166],[127.1041337,37.4860857],[127.1040865,37.4860604],[127.1040422,37.4861274],[127.1040555,37.4861309],[127.1040345,37.4861667],[127.1038188,37.4861684]]]}, "properties": {"osm_id": 863761149, "osm_type": "ways_poly", "railway": null, "operator": "주식회사SR", "layer": "1", "public_transport": null, "building": "train_station", "name": null, "amenity": null}},{"type": "Feature", "geometry": {"type":"Polygon","coordinates":[[[127.0148855,37.4845332],[127.0149255,37.4843928],[127.0159545,37.4845774],[127.0161024,37.4845358],[127.01615,37.4844672],[127.0163,37.4845328],[127.0162202,37.4846477],[127.0159709,37.4847277],[127.0148855,37.4845332]]]}, "properties": {"osm_id": 939568533, "osm_type": "ways_poly", "railway": null, "operator": null, "layer": null, "public_transport": "station", "building": "yes", "name": "서울남부버스터미널", "amenity": "bus_station"}},{"type": "Feature", "geometry": {"type":"Polygon","coordinates":[[[126.7636236,37.4866681],[126.7637101,37.4866548],[126.7636997,37.4866125],[126.7637839,37.4865995],[126.7637752,37.486564],[126.7637438,37.4865688],[126.7637365,37.486539],[126.7642481,37.4864602],[126.7642641,37.4865256],[126.7641793,37.4865386],[126.7641896,37.4865809],[126.7642744,37.4865679],[126.7643271,37.4867833],[126.7642423,37.4867964],[126.7642518,37.4868352],[126.7643366,37.4868221],[126.7643581,37.4869099],[126.7642565,37.4869255],[126.7642525,37.4869089],[126.7638424,37.486972],[126.7638342,37.4869386],[126.7638656,37.4869337],[126.7638564,37.4868961],[126.7637722,37.486909],[126.7637628,37.4868702],[126.7636763,37.4868835],[126.7636236,37.4866681]]]}, "properties": {"osm_id": 311595604, "osm_type": "ways_poly", "railway": null, "operator": null, "layer": "1", "public_transport": null, "building": "train_station", "name": "중동역", "amenity": null}},{"type": "Feature", "geometry": {"type":"Polygon","coordinates":[[[127.0533924,37.67888],[127.0534032,37.6788588],[127.0534166,37.678845],[127.0534127,37.6788303],[127.0534273,37.6788121],[127.053444,37.6787871],[127.0534716,37.6787447],[127.053491,37.6787131],[127.0536016,37.6787049],[127.0536405,37.6788652],[127.0535949,37.6788737],[127.0535949,37.6788864],[127.0534354,37.678914],[127.0534112,37.678914],[127.0533991,37.6789066],[127.0533924,37.67888]]]}, "properties": {"osm_id": 380687948, "osm_type": "ways_poly", "railway": null, "operator": null, "layer": null, "public_transport": "station", "building": "yes", "name": null, "amenity": "bus_station"}},{"type": "Feature", "geometry": {"type":"Polygon","coordinates":[[[127.0725837,37.6600084],[127.0727406,37.6599097],[127.0735788,37.6607813],[127.0742494,37.6613716],[127.0740938,37.6614905],[127.0736352,37.6610913],[127.0731792,37.6606518],[127.0725837,37.6600084]]]}, "properties": {"osm_id": 626515823, "osm_type": "ways_poly", "railway": null, "operator": "서울교통공사", "layer": "3", "public_transport": null, "building": "train_station", "name": "상계", "amenity": null}},{"type": "Feature", "geometry": {"type":"Polygon","coordinates":[[[127.0783065,37.6695713],[127.0785179,37.6694586],[127.0793594,37.6704112],[127.0798757,37.6709518],[127.079676,37.6710627],[127.0791602,37.6705335],[127.0783065,37.6695713]]]}, "properties": {"osm_id": 380855815, "osm_type": "ways_poly", "railway": null, "operator": "서울교통공사", "layer": "3", "public_transport": null, "building": "train_station", "name": null, "amenity": null}},{"type": "Feature", "geometry": {"type":"Polygon","coordinates":[[[127.0622781,37.6561792],[127.062294,37.656132],[127.0623153,37.6560777],[127.062329,37.6560375],[127.0623395,37.6560115],[127.0625386,37.6560573],[127.0632353,37.6562174],[127.0641561,37.656429],[127.0645954,37.6565299],[127.0645769,37.6565803],[127.0645339,37.6566975],[127.0641428,37.6566076],[127.0635565,37.6564729],[127.0631774,37.6563858],[127.0629338,37.6563299],[127.0624974,37.6562296],[127.0622781,37.6561792]]]}, "properties": {"osm_id": 626515820, "osm_type": "ways_poly", "railway": null, "operator": "서울교통공사", "layer": "3", "public_transport": null, "building": "train_station", "name": null, "amenity": null}},{"type": "Feature", "geometry": {"type":"Polygon","coordinates":[[[127.176526,37.6516185],[127.1767985,37.6514595],[127.1767578,37.6514158],[127.1768528,37.6513603],[127.1768935,37.651404],[127.1771644,37.6512458],[127.1772469,37.6513344],[127.1771392,37.6513973],[127.1771642,37.651424],[127.177135,37.6514411],[127.1771101,37.6514143],[127.1770767,37.6514339],[127.1771085,37.6514681],[127.1770177,37.6515211],[127.1770448,37.6515502],[127.1769126,37.6516273],[127.1768856,37.6515983],[127.1767776,37.6516613],[127.176768,37.6516509],[127.1766955,37.6516932],[127.1766408,37.6516345],[127.1765761,37.6516723],[127.176526,37.6516185]]]}, "properties": {"osm_id": 623035260, "osm_type": "ways_poly", "railway": null, "operator": null, "layer": null, "public_transport": null, "building": "train_station", "name": "사릉역", "amenity": null}},{"type": "Feature", "geometry": {"type":"Polygon","coordinates":[[[127.0905467,37.5996477],[127.0906734,37.599449],[127.0919565,37.5998924],[127.0922548,37.5994113],[127.0912014,37.5989846],[127.0913413,37.5987587],[127.0916977,37.5988905],[127.0917585,37.598788],[127.0921563,37.5989462],[127.0922102,37.5989676],[127.0924211,37.5990515],[127.0928137,37.5992043],[127.0928726,37.5992272],[127.0928224,37.5993109],[127.092891,37.5993386],[127.093522,37.5995933],[127.0934191,37.5997502],[127.0933874,37.5998004],[127.0924853,37.5994905],[127.0923947,37.5994594],[127.0920911,37.5999593],[127.0924818,37.6001329],[127.0924396,37.6001999],[127.0924053,37.6002584],[127.0923604,37.6003275],[127.0921862,37.600294],[127.0921545,37.6003463],[127.0914285,37.6000765],[127.0914575,37.6000221],[127.0905467,37.5996477]]]}, "properties": {"osm_id": 472455088, "osm_type": "ways_poly", "railway": null, "operator": null, "layer": "2", "public_transport": "station", "building": "train_station", "name": null, "amenity": null}},{"type": "Feature", "geometry": {"type":"Polygon","coordinates":[[[127.0083396,37.5291913],[127.0084285,37.5290438],[127.0100751,37.5296682],[127.0099861,37.5298157],[127.0083396,37.5291913]]]}, "properties": {"osm_id": 123721436, "osm_type": "ways_poly", "railway": null, "operator": null, "layer": "1", "public_transport": null, "building": "train_station", "name": "한남역", "amenity": null}},{"type": "Feature", "geometry": {"type":"Polygon","coordinates":[[[127.0534059,37.7000646],[127.05355,37.699994],[127.0537153,37.7002022],[127.0535722,37.700264],[127.0534059,37.7000646]]]}, "properties": {"osm_id": 382002933, "osm_type": "ways_poly", "railway": null, "operator": "서울교통공사", "layer": null, "public_transport": null, "building": "train_station", "name": null, "amenity": null}},{"type": "Feature", "geometry": {"type":"Polygon","coordinates":[[[127.0465969,37.6530121],[127.0466179,37.6529554],[127.0466208,37.6529485],[127.0466314,37.6529204],[127.0466587,37.6528485],[127.0475364,37.6530574],[127.0488885,37.6533792],[127.0488633,37.6534463],[127.0488502,37.65348],[127.0488267,37.6535418],[127.0475162,37.6532323],[127.0474665,37.6532181],[127.0466356,37.6530205],[127.0465969,37.6530121]]]}, "properties": {"osm_id": 381159450, "osm_type": "ways_poly", "railway": null, "operator": "서울교통공사", "layer": "3", "public_transport": null, "building": "train_station", "name": null, "amenity": null}},{"type": "Feature", "geometry": {"type":"Polygon","coordinates":[[[127.0376801,37.5623965],[127.0379967,37.5610081],[127.038182,37.5610342],[127.038254,37.5606604],[127.0383482,37.5601709],[127.0383517,37.5601283],[127.0384574,37.5601412],[127.038472,37.5601428],[127.0385566,37.5601521],[127.0391501,37.5602055],[127.0388477,37.5617221],[127.0387257,37.5623791],[127.0386752,37.5626509],[127.0386616,37.5627185],[127.0386511,37.5627707],[127.0380738,37.5626936],[127.0379205,37.5626731],[127.0378278,37.5626607],[127.0377284,37.5626474],[127.0377421,37.562591],[127.0377599,37.5625181],[127.0377874,37.562405],[127.0376801,37.5623965]]]}, "properties": {"osm_id": 159603684, "osm_type": "ways_poly", "railway": null, "operator": null, "layer": "2", "public_transport": null, "building": "train_station", "name": null, "amenity": null}},{"type": "Feature", "geometry": {"type":"Polygon","coordinates":[[[126.8999973,37.5753177],[126.9001673,37.575228],[126.9003502,37.5754457],[126.9001802,37.5755354],[126.8999973,37.5753177]]]}, "properties": {"osm_id": 614022894, "osm_type": "ways_poly", "railway": null, "operator": null, "layer": null, "public_transport": null, "building": "train_station", "name": null, "amenity": null}},{"type": "Feature", "geometry": {"type":"Polygon","coordinates":[[[126.9897743,37.5199767],[126.9897813,37.5198545],[126.9902946,37.519873],[126.9902876,37.5199952],[126.9897743,37.5199767]]]}, "properties": {"osm_id": 416550388, "osm_type": "ways_poly", "railway": null, "operator": null, "layer": null, "public_transport": null, "building": "train_station", "name": null, "amenity": null}},{"type": "Feature", "geometry": {"type":"Polygon","coordinates":[[[126.9894428,37.5197294],[126.9894459,37.5196804],[126.9896561,37.5196886],[126.9896614,37.5196032],[126.9894435,37.5195947],[126.9894465,37.5195462],[126.989721,37.5195569],[126.9897778,37.5195591],[126.9897576,37.519885],[126.9895218,37.5198758],[126.9895306,37.5197328],[126.9894428,37.5197294]]]}, "properties": {"osm_id": 416550381, "osm_type": "ways_poly", "railway": null, "operator": null, "layer": "1", "public_transport": null, "building": "train_station", "name": null, "amenity": null}},{"type": "Feature", "geometry": {"type":"Polygon","coordinates":[[[127.0440909,37.6688532],[127.0442998,37.6661548],[127.0444326,37.6660884],[127.0445737,37.6661701],[127.044337,37.6688647],[127.0440909,37.6688532]]]}, "properties": {"osm_id": 381670857, "osm_type": "ways_poly", "railway": null, "operator": null, "layer": "1", "public_transport": null, "building": "train_station", "name": null, "amenity": null}},{"type": "Feature", "geometry": {"type":"Polygon","coordinates":[[[127.0452313,37.6780053],[127.0453058,37.6779966],[127.0453511,37.6779913],[127.0454258,37.6779825],[127.0458473,37.6804329],[127.0456622,37.6804552],[127.0452313,37.6780053]]]}, "properties": {"osm_id": 455506467, "osm_type": "ways_poly", "railway": null, "operator": "한국철도공사", "layer": "1", "public_transport": null, "building": "train_station", "name": "도봉역", "amenity": null}},{"type": "Feature", "geometry": {"type":"Polygon","coordinates":[[[127.0446063,37.6899895],[127.0446881,37.6894963],[127.0448074,37.6895087],[127.0450999,37.6895285],[127.0452173,37.6895449],[127.0451983,37.6896804],[127.0451474,37.690042],[127.0446063,37.6899895]]]}, "properties": {"osm_id": 755435897, "osm_type": "ways_poly", "railway": null, "operator": "서울특별시", "layer": null, "public_transport": "station", "building": "yes", "name": "도봉산역 광역환승센터", "amenity": "bus_station"}},{"type": "Feature", "geometry": {"type":"Polygon","coordinates":[[[127.0470986,37.5699438],[127.0471651,37.56986],[127.0473372,37.5696383],[127.0474566,37.5697037],[127.0472077,37.5700132],[127.0470986,37.5699438]]]}, "properties": {"osm_id": 909585293, "osm_type": "ways_poly", "railway": null, "operator": "서울교통공사", "layer": null, "public_transport": null, "building": "train_station", "name": null, "amenity": null}},{"type": "Feature", "geometry": {"type":"Polygon","coordinates":[[[126.8952645,37.5813866],[126.8955693,37.5811787],[126.8954813,37.5810977],[126.8954891,37.5809814],[126.8954454,37.5809409],[126.8955794,37.58085],[126.895364,37.5806508],[126.8954418,37.580598],[126.8957545,37.5808872],[126.8959225,37.5807732],[126.8959712,37.5808182],[126.8962125,37.5806549],[126.8962689,37.5807081],[126.8962303,37.5807815],[126.8962655,37.5808139],[126.8953333,37.58145],[126.8952645,37.5813866]]]}, "properties": {"osm_id": 179262338, "osm_type": "ways_poly", "railway": null, "operator": null, "layer": "1", "public_transport": null, "building": "train_station", "name": null, "amenity": null}},{"type": "Feature", "geometry": {"type":"Polygon","coordinates":[[[127.0507248,37.6459194],[127.0509537,37.6453836],[127.0510176,37.6454007],[127.0509489,37.6455616],[127.050967,37.6455664],[127.0510124,37.6455786],[127.0510317,37.6455838],[127.0511004,37.6454229],[127.0511642,37.6454399],[127.0510955,37.6456008],[127.0511551,37.6456168],[127.051085,37.6457808],[127.0510417,37.6457692],[127.0509518,37.6459797],[127.0509288,37.6459735],[127.0508923,37.6459637],[127.0509955,37.6457221],[127.0509576,37.6457119],[127.050908,37.6456986],[127.050887,37.645693],[127.0507836,37.6459351],[127.0507248,37.6459194]]]}, "properties": {"osm_id": 624700673, "osm_type": "ways_poly", "railway": null, "operator": null, "layer": "1", "public_transport": null, "building": "train_station", "name": null, "amenity": null}},{"type": "Feature", "geometry": {"type":"Polygon","coordinates":[[[126.9015217,37.5770377],[126.901799,37.576817],[126.90237,37.5772676],[126.9020926,37.5774883],[126.9015217,37.5770377]]]}, "properties": {"osm_id": 779820443, "osm_type": "ways_poly", "railway": null, "operator": null, "layer": null, "public_transport": null, "building": "train_station", "name": null, "amenity": null}},{"type": "Feature", "geometry": {"type":"Polygon","coordinates":[[[127.1426243,37.6480922],[127.1426631,37.6480115],[127.1428281,37.6480624],[127.1428442,37.6480295],[127.1426793,37.6479786],[127.1427168,37.6478968],[127.1436274,37.648176],[127.1436824,37.6481654],[127.1437293,37.6481453],[127.1437655,37.6481155],[127.1437883,37.6480826],[127.1441558,37.6481962],[127.1441531,37.6482302],[127.1441598,37.6482674],[127.1441746,37.6482992],[127.1441933,37.6483332],[127.1442081,37.6483544],[127.1444428,37.6484256],[127.1443994,37.6485044],[127.1441915,37.6484414],[127.1441776,37.6484728],[127.1443844,37.6485354],[127.1443409,37.6486167],[127.1441075,37.6485456],[127.1440659,37.6485424],[127.1440284,37.6485477],[127.1440043,37.6485573],[127.1439801,37.6485806],[127.1435966,37.6484638],[127.1435979,37.6484426],[127.1435939,37.6484213],[127.1435818,37.6484022],[127.1435603,37.6483789],[127.1426243,37.6480922]],[[127.1432374,37.6481805],[127.1439547,37.6483999],[127.1439706,37.6483675],[127.1432532,37.648148],[127.1432374,37.6481805]]]}, "properties": {"osm_id": 8480797, "osm_type": "relations", "railway": null, "operator": null, "layer": null, "public_transport": null, "building": "train_station", "name": null, "amenity": null}},{"type": "Feature", "geometry": {"type":"MultiPolygon","coordinates":[[[[126.9694482,37.5563248],[126.96945,37.5558881],[126.9694518,37.5554435],[126.9698476,37.5554445],[126.9698467,37.5556653],[126.9699948,37.5556657],[126.9699999,37.555158],[126.9702444,37.5551634],[126.9702446,37.5551271],[126.9702996,37.5551272],[126.9707891,37.5551292],[126.9710807,37.5551304],[126.971135,37.5551302],[126.9711351,37.5551549],[126.9711799,37.5551548],[126.9711823,37.555666],[126.9713762,37.5556682],[126.9713698,37.5561626],[126.9712463,37.5561644],[126.9698664,37.5561609],[126.9698658,37.5563259],[126.9694675,37.5563249],[126.9694482,37.5563248]]],[[[126.9694706,37.5536434],[126.9694832,37.5534786],[126.9695116,37.5534098],[126.969645,37.5534096],[126.9696447,37.5533291],[126.9697663,37.5533318],[126.969772,37.5537954],[126.96995,37.5539504],[126.9702237,37.5538773],[126.9704933,37.5538467],[126.9709962,37.5538563],[126.9713217,37.5539236],[126.9715344,37.5539904],[126.9715917,37.5539112],[126.9721195,37.5542266],[126.9721169,37.5542649],[126.9720067,37.5542716],[126.9718738,37.5542539],[126.9718449,37.5542817],[126.97182,37.5543077],[126.9715472,37.5545885],[126.9715339,37.5546108],[126.9714365,37.5546131],[126.9714361,37.5547901],[126.9714715,37.5548005],[126.9714972,37.554813],[126.9715141,37.5548244],[126.9715316,37.5548399],[126.9715429,37.554853],[126.9715522,37.5548671],[126.9715592,37.5548816],[126.971565,37.5548999],[126.9715674,37.5549173],[126.9715671,37.5549343],[126.9715632,37.5549547],[126.9715556,37.5549745],[126.9715447,37.5549925],[126.9715359,37.5550033],[126.971523,37.5550162],[126.9715083,37.5550277],[126.9714891,37.5550393],[126.9714682,37.5550486],[126.9714458,37.5550556],[126.9714224,37.5550601],[126.9713942,37.555062],[126.971372,37.5550609],[126.9713475,37.5550571],[126.9713198,37.555049],[126.971299,37.5550398],[126.9712725,37.5550231],[126.9712516,37.5550039],[126.9712369,37.5549842],[126.9712265,37.5549629],[126.9711379,37.5549615],[126.9710862,37.5549604],[126.9703045,37.5549549],[126.9702482,37.5549539],[126.970114,37.5549482],[126.9700162,37.5549442],[126.9700385,37.5544048],[126.9699948,37.5544205],[126.9697354,37.5540472],[126.9697942,37.5540274],[126.9696364,37.5539183],[126.9695158,37.5538119],[126.9694809,37.553735],[126.9694706,37.5536434]]],[[[126.970028,37.5538364],[126.9700738,37.5523724],[126.9714676,37.5523862],[126.9714666,37.5538313],[126.970028,37.5538364]]]]}, "properties": {"osm_id": 7307085, "osm_type": "relations", "railway": null, "operator": null, "layer": "5", "public_transport": null, "building": "train_station", "name": null, "amenity": null}},{"type": "Feature", "geometry": {"type":"MultiPolygon","coordinates":[[[[126.8677832,37.4955893],[126.867851,37.4954925],[126.8683435,37.4957119],[126.86845,37.4955621],[126.8685183,37.4954646],[126.8685952,37.4954985],[126.8684041,37.4957717],[126.8680119,37.4955989],[126.8679149,37.4957374],[126.8678477,37.4957078],[126.8678959,37.495639],[126.8677832,37.4955893]]],[[[126.8705034,37.4963873],[126.8705253,37.4963699],[126.8705503,37.4963664],[126.8705715,37.496373],[126.8707508,37.4964712],[126.8707868,37.4964274],[126.8707904,37.4962481],[126.8707623,37.4962478],[126.8707679,37.495972],[126.8708833,37.4959735],[126.8710103,37.4959749],[126.8710003,37.4964318],[126.8708992,37.4964304],[126.8706508,37.4967947],[126.8705057,37.4967284],[126.8705255,37.4967011],[126.8706203,37.4967426],[126.8706714,37.4966693],[126.8705783,37.4966279],[126.8705943,37.4966061],[126.8706101,37.4965846],[126.8707011,37.4966262],[126.8708346,37.4964472],[126.8707857,37.4964936],[126.8707368,37.4965009],[126.8705524,37.4964045],[126.8705484,37.4964098],[126.8705034,37.4963873]]]]}, "properties": {"osm_id": 19442518, "osm_type": "relations", "railway": null, "operator": null, "layer": "1", "public_transport": null, "building": "train_station", "name": "구일역", "amenity": null}},{"type": "Feature", "geometry": {"type":"Polygon","coordinates":[[[126.9796233,37.5025003],[126.979675,37.5023576],[126.9802788,37.5024982],[126.9804005,37.5022202],[126.980434,37.5022195],[126.9804755,37.5022345],[126.980627,37.5022852],[126.9807908,37.5020418],[126.9808522,37.5020713],[126.9809754,37.5021304],[126.980817,37.5023549],[126.9808417,37.5023692],[126.9806457,37.5027277],[126.9806176,37.5027792],[126.9804992,37.5030479],[126.9803989,37.5033526],[126.9803456,37.5036162],[126.9803048,37.503855],[126.9801881,37.5038562],[126.9800908,37.5038572],[126.9801237,37.5035936],[126.9799764,37.5035737],[126.9799938,37.5034533],[126.980001,37.5033888],[126.9800312,37.5032951],[126.9801284,37.5029817],[126.9802731,37.5026426],[126.9796233,37.5025003]]]}, "properties": {"osm_id": 6168813, "osm_type": "relations", "railway": null, "operator": null, "layer": "3", "public_transport": null, "building": "train_station", "name": null, "amenity": null}}]}