{
"type": "FeatureCollection",
"name": "Buffered-Meters",
"crs": { "type": "name", "properties": { "name": "urn:ogc:def:crs:EPSG::32652" } },
"features": [
{ "type": "Feature", "properties": { "id_lokasi": "SEL-001", "nama_lokasi": "Gyeongbokgung Palace", "kategori_utama": "Keduanya", "alamat": "161 Sajik-ro, Jongno District, Seoul, South Korea", "Latitude": 37.57977852, "Longitude": 126.9770195, "judul_drama": "Kingdom, Goblin", "rating_gmaps": 4.6, "total_ulasan": 48500, "ulasan_keyword_drama": 2100, "ulasan_keyword_budaya": 15400, "rasio_pengaruh_drama": 4.33, "deskripsi_popup": "Istana utama Dinasti Joseon. Sering dikunjungi turis karena sejarahnya dan juga sebagai lokasi syuting 'Kingdom'." }, "geometry": { "type": "MultiPolygon", "coordinates": [ [ [ [ 322023.452046207501553, 4154792.422386119142175 ], [ 322014.688723790750373, 4154762.258832514286041 ], [ 322004.048708587302826, 4154732.705053359270096 ], [ 321991.573991876153741, 4154703.87768391892314 ], [ 321977.313805665064137, 4154675.890492650680244 ], [ 321961.324428394145798, 4154648.853932212106884 ], [ 321943.668962830619421, 4154622.874703555367887 ], [ 321924.417087031062692, 4154598.055334827397019 ], [ 321903.644779353868216, 4154574.493776737246662 ], [ 321881.434018607484177, 4154552.283015991095454 ], [ 321857.872460517508443, 4154531.510708313900977 ], [ 321833.05309178942116, 4154512.258832514286041 ], [ 321807.073863132682163, 4154494.603366950526834 ], [ 321780.037302693992388, 4154478.613989679608494 ], [ 321752.050111425691284, 4154464.353803468868136 ], [ 321723.222741985518951, 4154451.879086757544428 ], [ 321693.668962830619421, 4154441.239071554038674 ], [ 321663.505409225588664, 4154432.475749137345701 ], [ 321632.851122936001047, 4154425.623704337514937 ], [ 321601.827082425297704, 4154420.709979044273496 ], [ 321570.555725407786667, 4154417.753965487703681 ], [ 321539.160465643159114, 4154416.767329701688141 ], [ 321507.765205878473353, 4154417.753965487703681 ], [ 321476.493848861020524, 4154420.709979044273496 ], [ 321445.46980835031718, 4154425.623704337514937 ], [ 321414.815522060729563, 4154432.475749137345701 ], [ 321384.651968455698807, 4154441.239071554038674 ], [ 321355.098189300799277, 4154451.879086757544428 ], [ 321326.270819860626943, 4154464.353803468868136 ], [ 321298.28362859232584, 4154478.613989679608494 ], [ 321271.247068153636064, 4154494.603366950526834 ], [ 321245.267839496897068, 4154512.258832514286041 ], [ 321220.448470768809784, 4154531.510708313900977 ], [ 321196.886912678834051, 4154552.283015991095454 ], [ 321174.676151932450011, 4154574.493776737246662 ], [ 321153.903844255255535, 4154598.055334827397019 ], [ 321134.651968455698807, 4154622.874703555367887 ], [ 321116.99650289217243, 4154648.853932212106884 ], [ 321101.00712562125409, 4154675.890492650680244 ], [ 321086.746939410164487, 4154703.87768391892314 ], [ 321074.272222699015401, 4154732.705053359270096 ], [ 321063.632207495567854, 4154762.258832514286041 ], [ 321054.868885078816675, 4154792.422386119142175 ], [ 321048.016840278811287, 4154823.076672408729792 ], [ 321043.103114985919092, 4154854.100712919607759 ], [ 321040.147101429000031, 4154885.372069937177002 ], [ 321039.160465643159114, 4154916.767329701688141 ], [ 321040.147101429000031, 4154948.162589466199279 ], [ 321043.103114985919092, 4154979.433946483768523 ], [ 321048.016840278811287, 4155010.45798699464649 ], [ 321054.868885078816675, 4155041.112273284234107 ], [ 321063.632207495567854, 4155071.27582688909024 ], [ 321074.272222699015401, 4155100.829606044106185 ], [ 321086.746939410164487, 4155129.656975484453142 ], [ 321101.00712562125409, 4155157.644166752696037 ], [ 321116.99650289217243, 4155184.680727191269398 ], [ 321134.651968455698807, 4155210.659955848008394 ], [ 321153.903844255255535, 4155235.479324575979263 ], [ 321174.676151932450011, 4155259.040882666129619 ], [ 321196.886912678834051, 4155281.251643412280828 ], [ 321220.448470768809784, 4155302.023951089475304 ], [ 321245.267839496897068, 4155321.27582688909024 ], [ 321271.247068153636064, 4155338.931292452849448 ], [ 321298.28362859232584, 4155354.920669723767787 ], [ 321326.270819860626943, 4155369.180855934508145 ], [ 321355.098189300799277, 4155381.655572645831853 ], [ 321384.651968455698807, 4155392.295587849337608 ], [ 321414.815522060729563, 4155401.05891026603058 ], [ 321445.46980835031718, 4155407.910955065861344 ], [ 321476.493848861020524, 4155412.824680359102786 ], [ 321507.76520587853156, 4155415.7806939156726 ], [ 321539.160465643159114, 4155416.767329701688141 ], [ 321570.555725407844875, 4155415.7806939156726 ], [ 321601.827082425297704, 4155412.824680359102786 ], [ 321632.851122936001047, 4155407.910955065861344 ], [ 321663.505409225588664, 4155401.05891026603058 ], [ 321693.668962830619421, 4155392.295587849337608 ], [ 321723.222741985518951, 4155381.655572645831853 ], [ 321752.050111425691284, 4155369.180855934508145 ], [ 321780.037302693992388, 4155354.920669723767787 ], [ 321807.073863132682163, 4155338.931292452849448 ], [ 321833.05309178942116, 4155321.27582688909024 ], [ 321857.872460517508443, 4155302.023951089475304 ], [ 321881.434018607484177, 4155281.251643412280828 ], [ 321903.644779353868216, 4155259.040882666129619 ], [ 321924.417087031062692, 4155235.479324575979263 ], [ 321943.668962830619421, 4155210.659955848008394 ], [ 321961.324428394145798, 4155184.680727191269398 ], [ 321977.313805665064137, 4155157.644166752696037 ], [ 321991.573991876153741, 4155129.656975484453142 ], [ 322004.048708587302826, 4155100.829606044106185 ], [ 322014.688723790750373, 4155071.27582688909024 ], [ 322023.452046207501553, 4155041.112273284234107 ], [ 322030.304091007506941, 4155010.45798699464649 ], [ 322035.217816300399136, 4154979.433946483768523 ], [ 322038.173829857318196, 4154948.162589466199279 ], [ 322039.160465643159114, 4154916.767329701688141 ], [ 322038.173829857318196, 4154885.372069937177002 ], [ 322035.217816300399136, 4154854.100712919607759 ], [ 322030.304091007506941, 4154823.076672408729792 ], [ 322023.452046207501553, 4154792.422386119142175 ] ] ], [ [ [ 317997.891868494916707, 4155202.086656512692571 ], [ 317989.128546078165527, 4155171.923102907836437 ], [ 317978.488530874717981, 4155142.369323752820492 ], [ 317966.013814163568895, 4155113.541954312473536 ], [ 317951.753627952479292, 4155085.55476304423064 ], [ 317935.764250681560952, 4155058.518202605657279 ], [ 317918.108785118034575, 4155032.538973948918283 ], [ 317898.856909318477847, 4155007.719605220947415 ], [ 317878.084601641283371, 4154984.158047130797058 ], [ 317855.873840894899331, 4154961.947286384645849 ], [ 317832.312282804923598, 4154941.174978707451373 ], [ 317807.492914076836314, 4154921.923102907836437 ], [ 317781.513685420097318, 4154904.267637344077229 ], [ 317754.477124981407542, 4154888.27826007315889 ], [ 317726.489933713106439, 4154874.018073862418532 ], [ 317697.662564272934105, 4154861.543357151094824 ], [ 317668.108785118034575, 4154850.90334194758907 ], [ 317637.945231513003819, 4154842.140019530896097 ], [ 317607.290945223416202, 4154835.287974731065333 ], [ 317576.266904712712858, 4154830.374249437823892 ], [ 317544.995547695201822, 4154827.418235881254077 ], [ 317513.600287930574268, 4154826.431600095238537 ], [ 317482.205028165888507, 4154827.418235881254077 ], [ 317450.933671148435678, 4154830.374249437823892 ], [ 317419.909630637732334, 4154835.287974731065333 ], [ 317389.255344348144718, 4154842.140019530896097 ], [ 317359.091790743113961, 4154850.90334194758907 ], [ 317329.538011588214431, 4154861.543357151094824 ], [ 317300.710642148042098, 4154874.018073862418532 ], [ 317272.723450879740994, 4154888.27826007315889 ], [ 317245.686890441051219, 4154904.267637344077229 ], [ 317219.707661784312222, 4154921.923102907836437 ], [ 317194.888293056224938, 4154941.174978707451373 ], [ 317171.326734966249205, 4154961.947286384645849 ], [ 317149.115974219865166, 4154984.158047130797058 ], [ 317128.34366654267069, 4155007.719605220947415 ], [ 317109.091790743113961, 4155032.538973948918283 ], [ 317091.436325179587584, 4155058.518202605657279 ], [ 317075.446947908669244, 4155085.55476304423064 ], [ 317061.186761697579641, 4155113.541954312473536 ], [ 317048.712044986430556, 4155142.369323752820492 ], [ 317038.072029782983009, 4155171.923102907836437 ], [ 317029.308707366231829, 4155202.086656512692571 ], [ 317022.456662566226441, 4155232.740942802280188 ], [ 317017.542937273334246, 4155263.764983313158154 ], [ 317014.586923716415185, 4155295.036340330727398 ], [ 317013.600287930574268, 4155326.431600095238537 ], [ 317014.586923716415185, 4155357.826859859749675 ], [ 317017.542937273334246, 4155389.098216877318919 ], [ 317022.456662566226441, 4155420.122257388196886 ], [ 317029.308707366231829, 4155450.776543677784503 ], [ 317038.072029782983009, 4155480.940097282640636 ], [ 317048.712044986430556, 4155510.493876437656581 ], [ 317061.186761697579641, 4155539.321245878003538 ], [ 317075.446947908669244, 4155567.308437146246433 ], [ 317091.436325179587584, 4155594.344997584819794 ], [ 317109.091790743113961, 4155620.32422624155879 ], [ 317128.34366654267069, 4155645.143594969529659 ], [ 317149.115974219865166, 4155668.705153059680015 ], [ 317171.326734966249205, 4155690.915913805831224 ], [ 317194.888293056224938, 4155711.6882214830257 ], [ 317219.707661784312222, 4155730.940097282640636 ], [ 317245.686890441051219, 4155748.595562846399844 ], [ 317272.723450879740994, 4155764.584940117318183 ], [ 317300.710642148042098, 4155778.845126328058541 ], [ 317329.538011588214431, 4155791.319843039382249 ], [ 317359.091790743113961, 4155801.959858242888004 ], [ 317389.255344348144718, 4155810.723180659580976 ], [ 317419.909630637732334, 4155817.57522545941174 ], [ 317450.933671148435678, 4155822.488950752653182 ], [ 317482.205028165946715, 4155825.444964309222996 ], [ 317513.600287930574268, 4155826.431600095238537 ], [ 317544.995547695260029, 4155825.444964309222996 ], [ 317576.266904712712858, 4155822.488950752653182 ], [ 317607.290945223416202, 4155817.57522545941174 ], [ 317637.945231513003819, 4155810.723180659580976 ], [ 317668.108785118034575, 4155801.959858242888004 ], [ 317697.662564272934105, 4155791.319843039382249 ], [ 317726.489933713106439, 4155778.845126328058541 ], [ 317754.477124981407542, 4155764.584940117318183 ], [ 317781.513685420097318, 4155748.595562846399844 ], [ 317807.492914076836314, 4155730.940097282640636 ], [ 317832.312282804923598, 4155711.6882214830257 ], [ 317855.873840894899331, 4155690.915913805831224 ], [ 317878.084601641283371, 4155668.705153059680015 ], [ 317898.856909318477847, 4155645.143594969529659 ], [ 317918.108785118034575, 4155620.32422624155879 ], [ 317935.764250681560952, 4155594.344997584819794 ], [ 317951.753627952479292, 4155567.308437146246433 ], [ 317966.013814163568895, 4155539.321245878003538 ], [ 317978.488530874717981, 4155510.493876437656581 ], [ 317989.128546078165527, 4155480.940097282640636 ], [ 317997.891868494916707, 4155450.776543677784503 ], [ 318004.743913294922095, 4155420.122257388196886 ], [ 318009.65763858781429, 4155389.098216877318919 ], [ 318012.613652144733351, 4155357.826859859749675 ], [ 318013.600287930574268, 4155326.431600095238537 ], [ 318012.613652144733351, 4155295.036340330727398 ], [ 318009.65763858781429, 4155263.764983313158154 ], [ 318004.743913294922095, 4155232.740942802280188 ], [ 317997.891868494916707, 4155202.086656512692571 ] ] ], [ [ [ 318881.668795216945, 4158664.244992262218148 ], [ 318872.90547280019382, 4158634.081438657362014 ], [ 318862.265457596746273, 4158604.527659502346069 ], [ 318849.790740885597188, 4158575.700290061999112 ], [ 318835.530554674507584, 4158547.713098793756217 ], [ 318819.541177403589245, 4158520.676538355182856 ], [ 318801.885711840062868, 4158494.69730969844386 ], [ 318782.633836040506139, 4158469.877940970472991 ], [ 318761.861528363311663, 4158446.316382880322635 ], [ 318739.650767616927624, 4158424.105622134171426 ], [ 318716.08920952695189, 4158403.33331445697695 ], [ 318691.269840798864607, 4158384.081438657362014 ], [ 318665.29061214212561, 4158366.425973093602806 ], [ 318638.254051703435834, 4158350.436595822684467 ], [ 318610.266860435134731, 4158336.176409611944109 ], [ 318581.439490994962398, 4158323.701692900620401 ], [ 318551.885711840062868, 4158313.061677697114646 ], [ 318521.722158235032111, 4158304.298355280421674 ], [ 318491.067871945444494, 4158297.44631048059091 ], [ 318460.043831434741151, 4158292.532585187349468 ], [ 318428.772474417230114, 4158289.576571630779654 ], [ 318397.377214652602561, 4158288.589935844764113 ], [ 318365.9819548879168, 4158289.576571630779654 ], [ 318334.710597870463971, 4158292.532585187349468 ], [ 318303.686557359760627, 4158297.44631048059091 ], [ 318273.03227107017301, 4158304.298355280421674 ], [ 318242.868717465142254, 4158313.061677697114646 ], [ 318213.314938310242724, 4158323.701692900620401 ], [ 318184.48756887007039, 4158336.176409611944109 ], [ 318156.500377601769287, 4158350.436595822684467 ], [ 318129.463817163079511, 4158366.425973093602806 ], [ 318103.484588506340515, 4158384.081438657362014 ], [ 318078.665219778253231, 4158403.33331445697695 ], [ 318055.103661688277498, 4158424.105622134171426 ], [ 318032.892900941893458, 4158446.316382880322635 ], [ 318012.120593264698982, 4158469.877940970472991 ], [ 317992.868717465142254, 4158494.69730969844386 ], [ 317975.213251901615877, 4158520.676538355182856 ], [ 317959.223874630697537, 4158547.713098793756217 ], [ 317944.963688419607934, 4158575.700290061999112 ], [ 317932.488971708458848, 4158604.527659502346069 ], [ 317921.848956505011301, 4158634.081438657362014 ], [ 317913.085634088260122, 4158664.244992262218148 ], [ 317906.233589288254734, 4158694.899278551805764 ], [ 317901.319863995362539, 4158725.923319062683731 ], [ 317898.363850438443478, 4158757.194676080252975 ], [ 317897.377214652602561, 4158788.589935844764113 ], [ 317898.363850438443478, 4158819.985195609275252 ], [ 317901.319863995362539, 4158851.256552626844496 ], [ 317906.233589288254734, 4158882.280593137722462 ], [ 317913.085634088260122, 4158912.934879427310079 ], [ 317921.848956505011301, 4158943.098433032166213 ], [ 317932.488971708458848, 4158972.652212187182158 ], [ 317944.963688419607934, 4159001.479581627529114 ], [ 317959.223874630697537, 4159029.46677289577201 ], [ 317975.213251901615877, 4159056.503333334345371 ], [ 317992.868717465142254, 4159082.482561991084367 ], [ 318012.120593264698982, 4159107.301930719055235 ], [ 318032.892900941893458, 4159130.863488809205592 ], [ 318055.103661688277498, 4159153.074249555356801 ], [ 318078.665219778253231, 4159173.846557232551277 ], [ 318103.484588506340515, 4159193.098433032166213 ], [ 318129.463817163079511, 4159210.753898595925421 ], [ 318156.500377601769287, 4159226.74327586684376 ], [ 318184.48756887007039, 4159241.003462077584118 ], [ 318213.314938310242724, 4159253.478178788907826 ], [ 318242.868717465142254, 4159264.11819399241358 ], [ 318273.03227107017301, 4159272.881516409106553 ], [ 318303.686557359760627, 4159279.733561208937317 ], [ 318334.710597870463971, 4159284.647286502178758 ], [ 318365.981954887975007, 4159287.603300058748573 ], [ 318397.377214652602561, 4159288.589935844764113 ], [ 318428.772474417288322, 4159287.603300058748573 ], [ 318460.043831434741151, 4159284.647286502178758 ], [ 318491.067871945444494, 4159279.733561208937317 ], [ 318521.722158235032111, 4159272.881516409106553 ], [ 318551.885711840062868, 4159264.11819399241358 ], [ 318581.439490994962398, 4159253.478178788907826 ], [ 318610.266860435134731, 4159241.003462077584118 ], [ 318638.254051703435834, 4159226.74327586684376 ], [ 318665.29061214212561, 4159210.753898595925421 ], [ 318691.269840798864607, 4159193.098433032166213 ], [ 318716.08920952695189, 4159173.846557232551277 ], [ 318739.650767616927624, 4159153.074249555356801 ], [ 318761.861528363311663, 4159130.863488809205592 ], [ 318782.633836040506139, 4159107.301930719055235 ], [ 318801.885711840062868, 4159082.482561991084367 ], [ 318819.541177403589245, 4159056.503333334345371 ], [ 318835.530554674507584, 4159029.46677289577201 ], [ 318849.790740885597188, 4159001.479581627529114 ], [ 318862.265457596746273, 4158972.652212187182158 ], [ 318872.90547280019382, 4158943.098433032166213 ], [ 318881.668795216945, 4158912.934879427310079 ], [ 318888.520840016950388, 4158882.280593137722462 ], [ 318893.434565309842583, 4158851.256552626844496 ], [ 318896.390578866761643, 4158819.985195609275252 ], [ 318897.377214652602561, 4158788.589935844764113 ], [ 318896.390578866761643, 4158757.194676080252975 ], [ 318893.434565309842583, 4158725.923319062683731 ], [ 318888.520840016950388, 4158694.899278551805764 ], [ 318881.668795216945, 4158664.244992262218148 ] ] ], [ [ [ 321678.546000482863747, 4159329.192179321777076 ], [ 321667.9059852794162, 4159299.63840016676113 ], [ 321655.431268568267114, 4159270.811030726414174 ], [ 321641.171082357177511, 4159242.823839458171278 ], [ 321625.181705086259171, 4159215.787279019597918 ], [ 321607.526239522732794, 4159189.808050362858921 ], [ 321588.274363723176066, 4159164.988681634888053 ], [ 321567.50205604598159, 4159141.427123544737697 ], [ 321545.29129529959755, 4159119.216362798586488 ], [ 321521.729737209621817, 4159098.444055121392012 ], [ 321496.910368481534533, 4159079.192179321777076 ], [ 321470.931139824795537, 4159061.536713758017868 ], [ 321443.894579386105761, 4159045.547336487099528 ], [ 321415.907388117804658, 4159031.287150276359171 ], [ 321387.080018677632324, 4159018.812433565035462 ], [ 321357.526239522732794, 4159008.172418361529708 ], [ 321327.362685917702038, 4158999.409095944836736 ], [ 321296.708399628114421, 4158992.557051145005971 ], [ 321265.684359117411077, 4158987.64332585176453 ], [ 321234.413002099900041, 4158984.687312295194715 ], [ 321203.017742335272487, 4158983.700676509179175 ], [ 321171.622482570586726, 4158984.687312295194715 ], [ 321140.351125553133897, 4158987.64332585176453 ], [ 321109.327085042430554, 4158992.557051145005971 ], [ 321078.672798752842937, 4158999.409095944836736 ], [ 321048.50924514781218, 4159008.172418361529708 ], [ 321018.95546599291265, 4159018.812433565035462 ], [ 320990.128096552740317, 4159031.287150276359171 ], [ 320962.140905284439214, 4159045.547336487099528 ], [ 320935.104344845749438, 4159061.536713758017868 ], [ 320909.125116189010441, 4159079.192179321777076 ], [ 320884.305747460923158, 4159098.444055121392012 ], [ 320860.744189370947424, 4159119.216362798586488 ], [ 320838.533428624563385, 4159141.427123544737697 ], [ 320817.761120947368909, 4159164.988681634888053 ], [ 320798.50924514781218, 4159189.808050362858921 ], [ 320780.853779584285803, 4159215.787279019597918 ], [ 320764.864402313367464, 4159242.823839458171278 ], [ 320750.60421610227786, 4159270.811030726414174 ], [ 320738.129499391128775, 4159299.63840016676113 ], [ 320727.489484187681228, 4159329.192179321777076 ], [ 320718.726161770930048, 4159359.355732926633209 ], [ 320711.874116970924661, 4159390.010019216220826 ], [ 320706.960391678032465, 4159421.034059727098793 ], [ 320704.004378121113405, 4159452.305416744668037 ], [ 320703.017742335272487, 4159483.700676509179175 ], [ 320704.004378121113405, 4159515.095936273690313 ], [ 320706.960391678032465, 4159546.367293291259557 ], [ 320711.874116970924661, 4159577.391333802137524 ], [ 320718.726161770930048, 4159608.045620091725141 ], [ 320727.489484187681228, 4159638.209173696581274 ], [ 320738.129499391128775, 4159667.76295285159722 ], [ 320750.60421610227786, 4159696.590322291944176 ], [ 320764.864402313367464, 4159724.577513560187072 ], [ 320780.853779584285803, 4159751.614073998760432 ], [ 320781.106501710833982, 4159751.985943315085024 ], [ 320757.527435284864623, 4159741.782370124477893 ], [ 320727.973656129965093, 4159731.142354920972139 ], [ 320697.810102524934337, 4159722.379032504279166 ], [ 320667.15581623534672, 4159715.526987704448402 ], [ 320636.131775724643376, 4159710.613262411206961 ], [ 320604.860418707132339, 4159707.657248854637146 ], [ 320573.465158942504786, 4159706.670613068621606 ], [ 320542.069899177819025, 4159707.657248854637146 ], [ 320510.798542160366196, 4159710.613262411206961 ], [ 320479.774501649662852, 4159715.526987704448402 ], [ 320449.120215360075235, 4159722.379032504279166 ], [ 320418.956661755044479, 4159731.142354920972139 ], [ 320389.402882600144949, 4159741.782370124477893 ], [ 320360.575513159972616, 4159754.257086835801601 ], [ 320332.588321891671512, 4159768.517273046541959 ], [ 320305.551761452981737, 4159784.506650317460299 ], [ 320279.57253279624274, 4159802.162115881219506 ], [ 320254.753164068155456, 4159821.413991680834442 ], [ 320231.191605978179723, 4159842.186299358028919 ], [ 320208.980845231795684, 4159864.397060104180127 ], [ 320188.208537554601207, 4159887.958618194330484 ], [ 320168.956661755044479, 4159912.777986922301352 ], [ 320151.301196191518102, 4159938.757215579040349 ], [ 320135.311818920599762, 4159965.793776017613709 ], [ 320121.051632709510159, 4159993.780967285856605 ], [ 320108.576915998361073, 4160022.608336726203561 ], [ 320097.936900794913527, 4160052.162115881219506 ], [ 320089.173578378162347, 4160082.32566948607564 ], [ 320082.321533578156959, 4160112.979955775663257 ], [ 320077.407808285264764, 4160144.003996286541224 ], [ 320074.451794728345703, 4160175.275353304110467 ], [ 320073.465158942504786, 4160206.670613068621606 ], [ 320074.451794728345703, 4160238.065872833132744 ], [ 320077.407808285264764, 4160269.337229850701988 ], [ 320082.321533578156959, 4160300.361270361579955 ], [ 320089.173578378162347, 4160331.015556651167572 ], [ 320097.936900794913527, 4160361.179110256023705 ], [ 320108.576915998361073, 4160390.73288941103965 ], [ 320121.051632709510159, 4160419.560258851386607 ], [ 320135.311818920599762, 4160447.547450119629502 ], [ 320151.301196191518102, 4160474.584010558202863 ], [ 320168.956661755044479, 4160500.563239214941859 ], [ 320188.208537554601207, 4160525.382607942912728 ], [ 320208.980845231795684, 4160548.944166033063084 ], [ 320231.191605978179723, 4160571.154926779214293 ], [ 320254.753164068155456, 4160591.927234456408769 ], [ 320279.57253279624274, 4160611.179110256023705 ], [ 320305.551761452981737, 4160628.834575819782913 ], [ 320332.588321891671512, 4160644.823953090701252 ], [ 320360.575513159972616, 4160659.08413930144161 ], [ 320389.402882600144949, 4160671.558856012765318 ], [ 320418.956661755044479, 4160682.198871216271073 ], [ 320449.120215360075235, 4160690.962193632964045 ], [ 320479.774501649662852, 4160697.814238432794809 ], [ 320510.798542160366196, 4160702.727963726036251 ], [ 320542.069899177877232, 4160705.683977282606065 ], [ 320573.465158942504786, 4160706.670613068621606 ], [ 320604.860418707190547, 4160705.683977282606065 ], [ 320636.131775724643376, 4160702.727963726036251 ], [ 320667.15581623534672, 4160697.814238432794809 ], [ 320697.810102524934337, 4160690.962193632964045 ], [ 320727.973656129965093, 4160682.198871216271073 ], [ 320757.527435284864623, 4160671.558856012765318 ], [ 320786.354804725036956, 4160659.08413930144161 ], [ 320814.34199599333806, 4160644.823953090701252 ], [ 320841.378556432027835, 4160628.834575819782913 ], [ 320867.357785088766832, 4160611.179110256023705 ], [ 320892.177153816854116, 4160591.927234456408769 ], [ 320914.928507783974055, 4160571.869217797648162 ], [ 320916.505930357321631, 4160574.536493703257293 ], [ 320934.161395920848008, 4160600.515722359996289 ], [ 320953.413271720404737, 4160625.335091087967157 ], [ 320974.185579397599213, 4160648.896649178117514 ], [ 320996.396340143983252, 4160671.107409924268723 ], [ 321019.957898233958986, 4160691.879717601463199 ], [ 321044.777266962046269, 4160711.131593401078135 ], [ 321061.355963804468047, 4160722.398464140947908 ], [ 321050.70602674712427, 4160730.659402110148221 ], [ 321027.144468657148536, 4160751.431709787342697 ], [ 321004.933707910764497, 4160773.642470533493906 ], [ 320984.161400233570021, 4160797.204028623644263 ], [ 320964.909524434013292, 4160822.023397351615131 ], [ 320947.254058870486915, 4160848.002626008354127 ], [ 320931.264681599568576, 4160875.039186446927488 ], [ 320917.004495388478972, 4160903.026377715170383 ], [ 320904.529778677329887, 4160931.85374715551734 ], [ 320893.88976347388234, 4160961.407526310533285 ], [ 320885.12644105713116, 4160991.571079915389419 ], [ 320878.274396257125773, 4161022.225366204977036 ], [ 320873.360670964233577, 4161053.249406715855002 ], [ 320870.404657407314517, 4161084.520763733424246 ], [ 320869.418021621473599, 4161115.916023497935385 ], [ 320870.404657407314517, 4161147.311283262446523 ], [ 320873.360670964233577, 4161178.582640280015767 ], [ 320878.274396257125773, 4161209.606680790893734 ], [ 320885.12644105713116, 4161240.26096708048135 ], [ 320893.88976347388234, 4161270.424520685337484 ], [ 320904.529778677329887, 4161299.978299840353429 ], [ 320917.004495388478972, 4161328.805669280700386 ], [ 320931.264681599568576, 4161356.792860548943281 ], [ 320947.254058870486915, 4161383.829420987516642 ], [ 320964.909524434013292, 4161409.808649644255638 ], [ 320984.161400233570021, 4161434.628018372226506 ], [ 321004.933707910764497, 4161458.189576462376863 ], [ 321027.144468657148536, 4161480.400337208528072 ], [ 321050.70602674712427, 4161501.172644885722548 ], [ 321075.525395475211553, 4161520.424520685337484 ], [ 321101.50462413195055, 4161538.079986249096692 ], [ 321128.541184570640326, 4161554.069363520015031 ], [ 321156.528375838941429, 4161568.329549730755389 ], [ 321185.355745279113762, 4161580.804266442079097 ], [ 321214.909524434013292, 4161591.444281645584852 ], [ 321245.073078039044049, 4161600.207604062277824 ], [ 321275.727364328631666, 4161607.059648862108588 ], [ 321306.751404839335009, 4161611.973374155350029 ], [ 321338.022761856846046, 4161614.929387711919844 ], [ 321369.418021621473599, 4161615.916023497935385 ], [ 321400.81328138615936, 4161614.929387711919844 ], [ 321432.084638403612189, 4161611.973374155350029 ], [ 321463.108678914315533, 4161607.059648862108588 ], [ 321493.76296520390315, 4161600.207604062277824 ], [ 321523.926518808933906, 4161591.444281645584852 ], [ 321553.480297963833436, 4161580.804266442079097 ], [ 321582.30766740400577, 4161568.329549730755389 ], [ 321610.294858672306873, 4161554.069363520015031 ], [ 321630.30533812433714, 4161542.235198961570859 ], [ 321634.349079074861947, 4161550.17148743243888 ], [ 321650.338456345780287, 4161577.208047871012241 ], [ 321667.993921909306664, 4161603.187276527751237 ], [ 321687.245797708863392, 4161628.006645255722106 ], [ 321708.018105386057869, 4161651.568203345872462 ], [ 321730.228866132441908, 4161673.778964092023671 ], [ 321753.790424222417641, 4161694.551271769218147 ], [ 321778.609792950504925, 4161713.803147568833083 ], [ 321804.589021607243922, 4161731.458613132592291 ], [ 321831.625582045933697, 4161747.44799040351063 ], [ 321859.612773314234801, 4161761.708176614250988 ], [ 321888.440142754407134, 4161774.182893325574696 ], [ 321917.993921909306664, 4161784.822908529080451 ], [ 321948.15747551433742, 4161793.586230945773423 ], [ 321978.811761803925037, 4161800.438275745604187 ], [ 322009.835802314628381, 4161805.352001038845628 ], [ 322041.107159332139418, 4161808.308014595415443 ], [ 322072.502419096766971, 4161809.294650381430984 ], [ 322103.897678861452732, 4161808.308014595415443 ], [ 322135.169035878905561, 4161805.352001038845628 ], [ 322166.193076389608905, 4161800.438275745604187 ], [ 322196.847362679196522, 4161793.586230945773423 ], [ 322227.010916284227278, 4161784.822908529080451 ], [ 322256.564695439126808, 4161774.182893325574696 ], [ 322285.392064879299141, 4161761.708176614250988 ], [ 322313.379256147600245, 4161747.44799040351063 ], [ 322340.41581658629002, 4161731.458613132592291 ], [ 322366.395045243029017, 4161713.803147568833083 ], [ 322391.214413971116301, 4161694.551271769218147 ], [ 322414.775972061092034, 4161673.778964092023671 ], [ 322436.986732807476074, 4161651.568203345872462 ], [ 322457.75904048467055, 4161628.006645255722106 ], [ 322477.010916284227278, 4161603.187276527751237 ], [ 322494.666381847753655, 4161577.208047871012241 ], [ 322510.655759118671995, 4161550.17148743243888 ], [ 322524.915945329761598, 4161522.184296164195985 ], [ 322537.390662040910684, 4161493.356926723849028 ], [ 322548.03067724435823, 4161463.803147568833083 ], [ 322556.79399966110941, 4161433.639593963976949 ], [ 322563.646044461114798, 4161402.985307674389333 ], [ 322565.293383229873143, 4161392.58442002767697 ], [ 322590.251433282333892, 4161387.005634879693389 ], [ 322620.414986887364648, 4161378.242312463000417 ], [ 322649.968766042264178, 4161367.602297259494662 ], [ 322678.796135482436512, 4161355.127580548170954 ], [ 322706.783326750737615, 4161340.867394337430596 ], [ 322733.819887189427391, 4161324.878017066512257 ], [ 322759.799115846166387, 4161307.222551502753049 ], [ 322784.618484574253671, 4161287.970675703138113 ], [ 322808.180042664229404, 4161267.198368025943637 ], [ 322830.390803410613444, 4161244.987607279792428 ], [ 322851.16311108780792, 4161221.426049189642072 ], [ 322870.414986887364648, 4161196.606680461671203 ], [ 322888.070452450891025, 4161170.627451804932207 ], [ 322904.059829721809365, 4161143.590891366358846 ], [ 322918.320015932898968, 4161115.603700098115951 ], [ 322930.794732644048054, 4161086.776330657768995 ], [ 322941.434747847495601, 4161057.222551502753049 ], [ 322950.19807026424678, 4161027.058997897896916 ], [ 322951.1329978799331, 4161022.876372181344777 ], [ 322969.096879830001853, 4161018.860968830063939 ], [ 322999.26043343503261, 4161010.097646413370967 ], [ 323028.81421258993214, 4160999.457631209865212 ], [ 323057.641582030104473, 4160986.982914498541504 ], [ 323085.628773298405576, 4160972.722728287801147 ], [ 323112.665333737095352, 4160956.733351016882807 ], [ 323138.644562393834349, 4160939.077885453123599 ], [ 323163.463931121921632, 4160919.826009653508663 ], [ 323187.025489211897366, 4160899.053701976314187 ], [ 323209.236249958281405, 4160876.842941230162978 ], [ 323230.008557635475881, 4160853.281383140012622 ], [ 323249.26043343503261, 4160828.462014412041754 ], [ 323266.915898998558987, 4160802.482785755302757 ], [ 323282.905276269477326, 4160775.446225316729397 ], [ 323297.16546248056693, 4160747.459034048486501 ], [ 323309.640179191716015, 4160718.631664608139545 ], [ 323320.280194395163562, 4160689.077885453123599 ], [ 323329.043516811914742, 4160658.914331848267466 ], [ 323335.89556161192013, 4160628.260045558679849 ], [ 323340.809286904812325, 4160597.236005047801882 ], [ 323343.765300461731385, 4160565.964648030232638 ], [ 323344.751936247572303, 4160534.5693882657215 ], [ 323343.765300461731385, 4160503.174128501210362 ], [ 323340.809286904812325, 4160471.902771483641118 ], [ 323335.89556161192013, 4160440.878730972763151 ], [ 323329.043516811914742, 4160410.224444683175534 ], [ 323320.280194395163562, 4160380.060891078319401 ], [ 323309.640179191716015, 4160350.507111923303455 ], [ 323297.16546248056693, 4160321.679742482956499 ], [ 323282.905276269477326, 4160293.692551214713603 ], [ 323266.915898998558987, 4160266.655990776140243 ], [ 323249.26043343503261, 4160240.676762119401246 ], [ 323230.008557635475881, 4160215.857393391430378 ], [ 323209.236249958281405, 4160192.295835301280022 ], [ 323187.025489211897366, 4160170.085074555128813 ], [ 323163.463931121921632, 4160149.312766877934337 ], [ 323138.644562393834349, 4160130.060891078319401 ], [ 323112.665333737095352, 4160112.405425514560193 ], [ 323085.628773298405576, 4160096.416048243641853 ], [ 323057.641582030104473, 4160082.155862032901496 ], [ 323028.81421258993214, 4160069.681145321577787 ], [ 322999.26043343503261, 4160059.041130118072033 ], [ 322969.096879830001853, 4160050.277807701379061 ], [ 322938.442593540414236, 4160043.425762901548296 ], [ 322907.418553029710893, 4160038.512037608306855 ], [ 322876.147196012199856, 4160035.55602405173704 ], [ 322844.751936247572303, 4160034.5693882657215 ], [ 322813.356676482886542, 4160035.55602405173704 ], [ 322782.085319465433713, 4160038.512037608306855 ], [ 322751.061278954730369, 4160043.425762901548296 ], [ 322720.406992665142752, 4160050.277807701379061 ], [ 322690.243439060111996, 4160059.041130118072033 ], [ 322660.689659905212466, 4160069.681145321577787 ], [ 322631.862290465040132, 4160082.155862032901496 ], [ 322603.875099196739029, 4160096.416048243641853 ], [ 322576.838538758049253, 4160112.405425514560193 ], [ 322550.859310101310257, 4160130.060891078319401 ], [ 322526.039941373222973, 4160149.312766877934337 ], [ 322502.47838328324724, 4160170.085074555128813 ], [ 322480.2676225368632, 4160192.295835301280022 ], [ 322459.495314859668724, 4160215.857393391430378 ], [ 322440.243439060111996, 4160240.676762119401246 ], [ 322422.587973496585619, 4160266.655990776140243 ], [ 322406.598596225667279, 4160293.692551214713603 ], [ 322392.338410014577676, 4160321.679742482956499 ], [ 322379.86369330342859, 4160350.507111923303455 ], [ 322369.223678099981043, 4160380.060891078319401 ], [ 322360.460355683229864, 4160410.224444683175534 ], [ 322359.525428067543544, 4160414.407070399727672 ], [ 322341.561546117474791, 4160418.422473751008511 ], [ 322311.397992512444034, 4160427.185796167701483 ], [ 322281.844213357544504, 4160437.825811371207237 ], [ 322253.016843917372171, 4160450.300528082530946 ], [ 322225.029652649071068, 4160464.560714293271303 ], [ 322197.993092210381292, 4160480.550091564189643 ], [ 322172.013863553642295, 4160498.20555712794885 ], [ 322147.194494825555012, 4160517.457432927563787 ], [ 322123.632936735579278, 4160538.229740604758263 ], [ 322101.422175989195239, 4160560.440501350909472 ], [ 322080.649868312000763, 4160584.002059441059828 ], [ 322061.397992512444034, 4160608.821428169030696 ], [ 322043.742526948917657, 4160634.800656825769693 ], [ 322027.753149677999318, 4160661.837217264343053 ], [ 322013.492963466909714, 4160689.824408532585949 ], [ 322001.018246755760629, 4160718.651777972932905 ], [ 321990.378231552313082, 4160748.20555712794885 ], [ 321981.614909135561902, 4160778.369110732804984 ], [ 321974.762864335556515, 4160809.023397022392601 ], [ 321973.115525566798169, 4160819.424284669104964 ], [ 321948.15747551433742, 4160825.003069817088544 ], [ 321917.993921909306664, 4160833.766392233781517 ], [ 321888.440142754407134, 4160844.406407437287271 ], [ 321859.612773314234801, 4160856.881124148610979 ], [ 321831.625582045933697, 4160871.141310359351337 ], [ 321811.61510259390343, 4160882.975474917795509 ], [ 321807.571361643378623, 4160875.039186446927488 ], [ 321791.581984372460283, 4160848.002626008354127 ], [ 321773.926518808933906, 4160822.023397351615131 ], [ 321754.674643009377178, 4160797.204028623644263 ], [ 321733.902335332182702, 4160773.642470533493906 ], [ 321711.691574585798662, 4160751.431709787342697 ], [ 321688.130016495822929, 4160730.659402110148221 ], [ 321663.310647767735645, 4160711.407526310533285 ], [ 321646.731950925313868, 4160700.140655570663512 ], [ 321657.381887982657645, 4160691.879717601463199 ], [ 321680.943446072633378, 4160671.107409924268723 ], [ 321703.154206819017418, 4160648.896649178117514 ], [ 321723.926514496211894, 4160625.335091087967157 ], [ 321743.178390295768622, 4160600.515722359996289 ], [ 321760.833855859294999, 4160574.536493703257293 ], [ 321776.823233130213339, 4160547.499933264683932 ], [ 321791.083419341302942, 4160519.512741996441036 ], [ 321803.558136052452028, 4160490.68537255609408 ], [ 321814.198151255899575, 4160461.131593401078135 ], [ 321822.961473672650754, 4160430.968039796222001 ], [ 321829.813518472656142, 4160400.313753506634384 ], [ 321834.727243765548337, 4160369.289712995756418 ], [ 321837.683257322467398, 4160338.018355978187174 ], [ 321838.664656009117607, 4160306.789743411354721 ], [ 321858.244337781798095, 4160287.210061639081687 ], [ 321879.016645458992571, 4160263.64850354893133 ], [ 321898.268521258549299, 4160238.829134820960462 ], [ 321915.923986822075676, 4160212.849906164221466 ], [ 321931.913364092994016, 4160185.813345725648105 ], [ 321946.173550304083619, 4160157.82615445740521 ], [ 321958.648267015232705, 4160128.998785017058253 ], [ 321969.288282218680251, 4160099.445005862042308 ], [ 321978.051604635431431, 4160069.281452257186174 ], [ 321984.903649435436819, 4160038.627165967598557 ], [ 321989.817374728329014, 4160007.603125456720591 ], [ 321992.773388285248075, 4159976.331768439151347 ], [ 321993.760024071088992, 4159944.936508674640208 ], [ 321992.773388285248075, 4159913.54124891012907 ], [ 321989.817374728329014, 4159882.269891892559826 ], [ 321984.903649435436819, 4159851.245851381681859 ], [ 321978.051604635431431, 4159820.591565092094243 ], [ 321969.288282218680251, 4159790.428011487238109 ], [ 321958.648267015232705, 4159760.874232332222164 ], [ 321946.173550304083619, 4159732.046862891875207 ], [ 321931.913364092994016, 4159704.059671623632312 ], [ 321915.923986822075676, 4159677.023111185058951 ], [ 321898.268521258549299, 4159651.043882528319955 ], [ 321879.016645458992571, 4159626.224513800349087 ], [ 321858.244337781798095, 4159602.66295571019873 ], [ 321836.033577035414055, 4159580.452194964047521 ], [ 321812.472018945438322, 4159559.679887286853045 ], [ 321787.652650217351038, 4159540.428011487238109 ], [ 321761.673421560612042, 4159522.772545923478901 ], [ 321734.636861121922266, 4159506.783168652560562 ], [ 321706.649669853621162, 4159492.522982441820204 ], [ 321702.792939268401824, 4159490.854026084765792 ], [ 321703.017742335272487, 4159483.700676509179175 ], [ 321702.03110654943157, 4159452.305416744668037 ], [ 321699.075092992512509, 4159421.034059727098793 ], [ 321694.161367699620314, 4159390.010019216220826 ], [ 321687.309322899614926, 4159359.355732926633209 ], [ 321678.546000482863747, 4159329.192179321777076 ] ] ], [ [ [ 318443.546691373048816, 4159568.328012203797698 ], [ 318432.906676169601269, 4159538.774233048781753 ], [ 318420.431959458452184, 4159509.946863608434796 ], [ 318406.17177324736258, 4159481.959672340191901 ], [ 318390.182395976444241, 4159454.92311190161854 ], [ 318372.526930412917864, 4159428.943883244879544 ], [ 318353.275054613361135, 4159404.124514516908675 ], [ 318332.502746936166659, 4159380.562956426758319 ], [ 318310.291986189782619, 4159358.35219568060711 ], [ 318286.730428099806886, 4159337.579888003412634 ], [ 318261.911059371719602, 4159318.328012203797698 ], [ 318235.931830714980606, 4159300.67254664003849 ], [ 318208.89527027629083, 4159284.683169369120151 ], [ 318180.908079007989727, 4159270.422983158379793 ], [ 318152.080709567817394, 4159257.948266447056085 ], [ 318122.526930412917864, 4159247.30825124355033 ], [ 318092.363376807887107, 4159238.544928826857358 ], [ 318061.70909051829949, 4159231.692884027026594 ], [ 318030.685050007596146, 4159226.779158733785152 ], [ 317999.41369299008511, 4159223.823145177215338 ], [ 317968.018433225457557, 4159222.836509391199797 ], [ 317936.623173460771795, 4159223.823145177215338 ], [ 317905.351816443318967, 4159226.779158733785152 ], [ 317874.327775932615623, 4159231.692884027026594 ], [ 317843.673489643028006, 4159238.544928826857358 ], [ 317813.50993603799725, 4159247.30825124355033 ], [ 317783.956156883097719, 4159257.948266447056085 ], [ 317755.128787442925386, 4159270.422983158379793 ], [ 317727.141596174624283, 4159284.683169369120151 ], [ 317700.105035735934507, 4159300.67254664003849 ], [ 317674.125807079195511, 4159318.328012203797698 ], [ 317649.306438351108227, 4159337.579888003412634 ], [ 317625.744880261132494, 4159358.35219568060711 ], [ 317603.534119514748454, 4159380.562956426758319 ], [ 317582.761811837553978, 4159404.124514516908675 ], [ 317563.50993603799725, 4159428.943883244879544 ], [ 317545.854470474470872, 4159454.92311190161854 ], [ 317529.865093203552533, 4159481.959672340191901 ], [ 317515.604906992462929, 4159509.946863608434796 ], [ 317503.130190281313844, 4159538.774233048781753 ], [ 317492.490175077866297, 4159568.328012203797698 ], [ 317483.726852661115117, 4159598.491565808653831 ], [ 317476.87480786110973, 4159629.145852098241448 ], [ 317471.961082568217535, 4159660.169892609119415 ], [ 317469.005069011298474, 4159691.441249626688659 ], [ 317468.018433225457557, 4159722.836509391199797 ], [ 317469.005069011298474, 4159754.231769155710936 ], [ 317471.961082568217535, 4159785.50312617328018 ], [ 317476.87480786110973, 4159816.527166684158146 ], [ 317483.726852661115117, 4159847.181452973745763 ], [ 317492.490175077866297, 4159877.345006578601897 ], [ 317503.130190281313844, 4159906.898785733617842 ], [ 317515.604906992462929, 4159935.726155173964798 ], [ 317529.865093203552533, 4159963.713346442207694 ], [ 317545.854470474470872, 4159990.749906880781054 ], [ 317563.50993603799725, 4160016.729135537520051 ], [ 317582.761811837553978, 4160041.548504265490919 ], [ 317603.534119514748454, 4160065.110062355641276 ], [ 317625.744880261132494, 4160087.320823101792485 ], [ 317649.306438351108227, 4160108.093130778986961 ], [ 317674.125807079195511, 4160127.345006578601897 ], [ 317700.105035735934507, 4160145.000472142361104 ], [ 317727.141596174624283, 4160160.989849413279444 ], [ 317755.128787442925386, 4160175.250035624019802 ], [ 317783.956156883097719, 4160187.72475233534351 ], [ 317813.50993603799725, 4160198.364767538849264 ], [ 317843.673489643028006, 4160207.128089955542237 ], [ 317874.327775932615623, 4160213.980134755373001 ], [ 317905.351816443318967, 4160218.893860048614442 ], [ 317936.623173460830003, 4160221.849873605184257 ], [ 317968.018433225457557, 4160222.836509391199797 ], [ 317999.413692990143318, 4160221.849873605184257 ], [ 318030.685050007596146, 4160218.893860048614442 ], [ 318061.70909051829949, 4160213.980134755373001 ], [ 318092.363376807887107, 4160207.128089955542237 ], [ 318122.526930412917864, 4160198.364767538849264 ], [ 318152.080709567817394, 4160187.72475233534351 ], [ 318180.908079007989727, 4160175.250035624019802 ], [ 318208.89527027629083, 4160160.989849413279444 ], [ 318235.931830714980606, 4160145.000472142361104 ], [ 318261.911059371719602, 4160127.345006578601897 ], [ 318286.730428099806886, 4160108.093130778986961 ], [ 318310.291986189782619, 4160087.320823101792485 ], [ 318332.502746936166659, 4160065.110062355641276 ], [ 318353.275054613361135, 4160041.548504265490919 ], [ 318372.526930412917864, 4160016.729135537520051 ], [ 318390.182395976444241, 4159990.749906880781054 ], [ 318406.17177324736258, 4159963.713346442207694 ], [ 318420.431959458452184, 4159935.726155173964798 ], [ 318432.906676169601269, 4159906.898785733617842 ], [ 318443.546691373048816, 4159877.345006578601897 ], [ 318452.310013789799996, 4159847.181452973745763 ], [ 318459.162058589805383, 4159816.527166684158146 ], [ 318464.075783882697579, 4159785.50312617328018 ], [ 318467.031797439616639, 4159754.231769155710936 ], [ 318468.018433225457557, 4159722.836509391199797 ], [ 318467.031797439616639, 4159691.441249626688659 ], [ 318464.075783882697579, 4159660.169892609119415 ], [ 318459.162058589805383, 4159629.145852098241448 ], [ 318452.310013789799996, 4159598.491565808653831 ], [ 318443.546691373048816, 4159568.328012203797698 ] ] ], [ [ [ 319983.986332170490641, 4160409.165320995263755 ], [ 319973.346316967043094, 4160379.61154184024781 ], [ 319960.871600255894009, 4160350.784172399900854 ], [ 319946.611414044804405, 4160322.796981131657958 ], [ 319930.622036773886066, 4160295.760420693084598 ], [ 319912.966571210359689, 4160269.781192036345601 ], [ 319893.71469541080296, 4160244.961823308374733 ], [ 319872.942387733608484, 4160221.400265218224376 ], [ 319850.731626987224445, 4160199.189504472073168 ], [ 319827.170068897248711, 4160178.417196794878691 ], [ 319802.350700169161428, 4160159.165320995263755 ], [ 319776.371471512422431, 4160141.509855431504548 ], [ 319749.334911073732655, 4160125.520478160586208 ], [ 319721.347719805431552, 4160111.26029194984585 ], [ 319692.520350365259219, 4160098.785575238522142 ], [ 319662.966571210359689, 4160088.145560035016388 ], [ 319632.803017605328932, 4160079.382237618323416 ], [ 319602.148731315741315, 4160072.530192818492651 ], [ 319571.124690805037972, 4160067.61646752525121 ], [ 319539.853333787526935, 4160064.660453968681395 ], [ 319508.458074022899382, 4160063.673818182665855 ], [ 319477.062814258213621, 4160064.660453968681395 ], [ 319445.791457240760792, 4160067.61646752525121 ], [ 319414.767416730057448, 4160072.530192818492651 ], [ 319384.113130440469831, 4160079.382237618323416 ], [ 319353.949576835439075, 4160088.145560035016388 ], [ 319324.395797680539545, 4160098.785575238522142 ], [ 319295.568428240367211, 4160111.26029194984585 ], [ 319267.581236972066108, 4160125.520478160586208 ], [ 319240.544676533376332, 4160141.509855431504548 ], [ 319214.565447876637336, 4160159.165320995263755 ], [ 319189.746079148550052, 4160178.417196794878691 ], [ 319166.184521058574319, 4160199.189504472073168 ], [ 319143.973760312190279, 4160221.400265218224376 ], [ 319123.201452634995803, 4160244.961823308374733 ], [ 319103.949576835439075, 4160269.781192036345601 ], [ 319086.294111271912698, 4160295.760420693084598 ], [ 319070.304734000994358, 4160322.796981131657958 ], [ 319056.044547789904755, 4160350.784172399900854 ], [ 319043.569831078755669, 4160379.61154184024781 ], [ 319032.929815875308122, 4160409.165320995263755 ], [ 319024.166493458556943, 4160439.328874600119889 ], [ 319017.314448658551555, 4160469.983160889707506 ], [ 319012.40072336565936, 4160501.007201400585473 ], [ 319009.444709808740299, 4160532.278558418154716 ], [ 319008.458074022899382, 4160563.673818182665855 ], [ 319009.444709808740299, 4160595.069077947176993 ], [ 319012.40072336565936, 4160626.340434964746237 ], [ 319017.314448658551555, 4160657.364475475624204 ], [ 319024.166493458556943, 4160688.018761765211821 ], [ 319032.929815875308122, 4160718.182315370067954 ], [ 319043.569831078755669, 4160747.736094525083899 ], [ 319056.044547789904755, 4160776.563463965430856 ], [ 319070.304734000994358, 4160804.550655233673751 ], [ 319086.294111271912698, 4160831.587215672247112 ], [ 319103.949576835439075, 4160857.566444328986108 ], [ 319123.201452634995803, 4160882.385813056956977 ], [ 319143.973760312190279, 4160905.947371147107333 ], [ 319166.184521058574319, 4160928.158131893258542 ], [ 319189.746079148550052, 4160948.930439570453018 ], [ 319214.565447876637336, 4160968.182315370067954 ], [ 319240.544676533376332, 4160985.837780933827162 ], [ 319267.581236972066108, 4161001.827158204745501 ], [ 319295.568428240367211, 4161016.087344415485859 ], [ 319324.395797680539545, 4161028.562061126809567 ], [ 319353.949576835439075, 4161039.202076330315322 ], [ 319384.113130440469831, 4161047.965398747008294 ], [ 319414.767416730057448, 4161054.817443546839058 ], [ 319445.791457240760792, 4161059.7311688400805 ], [ 319477.062814258271828, 4161062.687182396650314 ], [ 319508.458074022899382, 4161063.673818182665855 ], [ 319539.853333787585143, 4161062.687182396650314 ], [ 319571.124690805037972, 4161059.7311688400805 ], [ 319602.148731315741315, 4161054.817443546839058 ], [ 319632.803017605328932, 4161047.965398747008294 ], [ 319662.966571210359689, 4161039.202076330315322 ], [ 319692.520350365259219, 4161028.562061126809567 ], [ 319721.347719805431552, 4161016.087344415485859 ], [ 319749.334911073732655, 4161001.827158204745501 ], [ 319776.371471512422431, 4160985.837780933827162 ], [ 319802.350700169161428, 4160968.182315370067954 ], [ 319827.170068897248711, 4160948.930439570453018 ], [ 319850.731626987224445, 4160928.158131893258542 ], [ 319872.942387733608484, 4160905.947371147107333 ], [ 319893.71469541080296, 4160882.385813056956977 ], [ 319912.966571210359689, 4160857.566444328986108 ], [ 319930.622036773886066, 4160831.587215672247112 ], [ 319946.611414044804405, 4160804.550655233673751 ], [ 319960.871600255894009, 4160776.563463965430856 ], [ 319973.346316967043094, 4160747.736094525083899 ], [ 319983.986332170490641, 4160718.182315370067954 ], [ 319992.749654587241821, 4160688.018761765211821 ], [ 319999.601699387247209, 4160657.364475475624204 ], [ 320004.515424680139404, 4160626.340434964746237 ], [ 320007.471438237058464, 4160595.069077947176993 ], [ 320008.458074022899382, 4160563.673818182665855 ], [ 320007.471438237058464, 4160532.278558418154716 ], [ 320004.515424680139404, 4160501.007201400585473 ], [ 319999.601699387247209, 4160469.983160889707506 ], [ 319992.749654587241821, 4160439.328874600119889 ], [ 319983.986332170490641, 4160409.165320995263755 ] ] ], [ [ [ 329124.440881190472282, 4153143.904757772572339 ], [ 329115.677558773721103, 4153113.741204167716205 ], [ 329105.037543570273556, 4153084.18742501270026 ], [ 329092.562826859124471, 4153055.360055572353303 ], [ 329078.302640648034867, 4153027.372864304110408 ], [ 329062.313263377116527, 4153000.336303865537047 ], [ 329044.65779781359015, 4152974.357075208798051 ], [ 329025.405922014033422, 4152949.537706480827183 ], [ 329004.633614336838946, 4152925.976148390676826 ], [ 328982.422853590454906, 4152903.765387644525617 ], [ 328958.861295500479173, 4152882.993079967331141 ], [ 328934.041926772391889, 4152863.741204167716205 ], [ 328908.062698115652893, 4152846.085738603956997 ], [ 328881.026137676963117, 4152830.096361333038658 ], [ 328853.038946408662014, 4152815.8361751222983 ], [ 328824.21157696848968, 4152803.361458410974592 ], [ 328794.65779781359015, 4152792.721443207468837 ], [ 328764.494244208559394, 4152783.958120790775865 ], [ 328733.839957918971777, 4152777.106075990945101 ], [ 328702.815917408268433, 4152772.19235069770366 ], [ 328671.544560390757397, 4152769.236337141133845 ], [ 328640.149300626129843, 4152768.249701355118304 ], [ 328608.754040861444082, 4152769.236337141133845 ], [ 328577.482683843991254, 4152772.19235069770366 ], [ 328546.45864333328791, 4152777.106075990945101 ], [ 328515.804357043700293, 4152783.958120790775865 ], [ 328485.640803438669536, 4152792.721443207468837 ], [ 328456.087024283770006, 4152803.361458410974592 ], [ 328427.259654843597673, 4152815.8361751222983 ], [ 328399.27246357529657, 4152830.096361333038658 ], [ 328372.235903136606794, 4152846.085738603956997 ], [ 328346.256674479867797, 4152863.741204167716205 ], [ 328321.437305751780514, 4152882.993079967331141 ], [ 328297.87574766180478, 4152903.765387644525617 ], [ 328275.664986915420741, 4152925.976148390676826 ], [ 328254.892679238226265, 4152949.537706480827183 ], [ 328235.640803438669536, 4152974.357075208798051 ], [ 328217.985337875143159, 4153000.336303865537047 ], [ 328201.99596060422482, 4153027.372864304110408 ], [ 328187.735774393135216, 4153055.360055572353303 ], [ 328175.261057681986131, 4153084.18742501270026 ], [ 328164.621042478538584, 4153113.741204167716205 ], [ 328155.857720061787404, 4153143.904757772572339 ], [ 328149.005675261782017, 4153174.559044062159956 ], [ 328144.091949968889821, 4153205.583084573037922 ], [ 328141.135936411970761, 4153236.854441590607166 ], [ 328140.149300626129843, 4153268.249701355118304 ], [ 328141.135936411970761, 4153299.644961119629443 ], [ 328144.091949968889821, 4153330.916318137198687 ], [ 328149.005675261782017, 4153361.940358648076653 ], [ 328155.857720061787404, 4153392.59464493766427 ], [ 328164.621042478538584, 4153422.758198542520404 ], [ 328175.261057681986131, 4153452.311977697536349 ], [ 328187.735774393135216, 4153481.139347137883306 ], [ 328201.99596060422482, 4153509.126538406126201 ], [ 328217.985337875143159, 4153536.163098844699562 ], [ 328235.640803438669536, 4153562.142327501438558 ], [ 328254.892679238226265, 4153586.961696229409426 ], [ 328275.664986915420741, 4153610.523254319559783 ], [ 328297.87574766180478, 4153632.734015065710992 ], [ 328321.437305751780514, 4153653.506322742905468 ], [ 328346.256674479867797, 4153672.758198542520404 ], [ 328372.235903136606794, 4153690.413664106279612 ], [ 328399.27246357529657, 4153706.403041377197951 ], [ 328427.259654843597673, 4153720.663227587938309 ], [ 328456.087024283770006, 4153733.137944299262017 ], [ 328485.640803438669536, 4153743.777959502767771 ], [ 328515.804357043700293, 4153752.541281919460744 ], [ 328546.45864333328791, 4153759.393326719291508 ], [ 328577.482683843991254, 4153764.307052012532949 ], [ 328608.75404086150229, 4153767.263065569102764 ], [ 328640.149300626129843, 4153768.249701355118304 ], [ 328671.544560390815604, 4153767.263065569102764 ], [ 328702.815917408268433, 4153764.307052012532949 ], [ 328733.839957918971777, 4153759.393326719291508 ], [ 328764.494244208559394, 4153752.541281919460744 ], [ 328794.65779781359015, 4153743.777959502767771 ], [ 328824.21157696848968, 4153733.137944299262017 ], [ 328853.038946408662014, 4153720.663227587938309 ], [ 328881.026137676963117, 4153706.403041377197951 ], [ 328908.062698115652893, 4153690.413664106279612 ], [ 328934.041926772391889, 4153672.758198542520404 ], [ 328958.861295500479173, 4153653.506322742905468 ], [ 328982.422853590454906, 4153632.734015065710992 ], [ 329004.633614336838946, 4153610.523254319559783 ], [ 329025.405922014033422, 4153586.961696229409426 ], [ 329044.65779781359015, 4153562.142327501438558 ], [ 329062.313263377116527, 4153536.163098844699562 ], [ 329078.302640648034867, 4153509.126538406126201 ], [ 329092.562826859124471, 4153481.139347137883306 ], [ 329105.037543570273556, 4153452.311977697536349 ], [ 329115.677558773721103, 4153422.758198542520404 ], [ 329124.440881190472282, 4153392.59464493766427 ], [ 329131.29292599047767, 4153361.940358648076653 ], [ 329136.206651283369865, 4153330.916318137198687 ], [ 329139.162664840288926, 4153299.644961119629443 ], [ 329140.149300626129843, 4153268.249701355118304 ], [ 329139.162664840288926, 4153236.854441590607166 ], [ 329136.206651283369865, 4153205.583084573037922 ], [ 329131.29292599047767, 4153174.559044062159956 ], [ 329124.440881190472282, 4153143.904757772572339 ] ] ], [ [ [ 323616.917146658641286, 4153514.077280709519982 ], [ 323608.153824241890106, 4153483.913727104663849 ], [ 323597.51380903844256, 4153454.359947949647903 ], [ 323585.039092327293474, 4153425.532578509300947 ], [ 323570.778906116203871, 4153397.545387241058052 ], [ 323554.789528845285531, 4153370.508826802484691 ], [ 323537.134063281759154, 4153344.529598145745695 ], [ 323517.882187482202426, 4153319.710229417774826 ], [ 323497.109879805007949, 4153296.14867132762447 ], [ 323474.89911905862391, 4153273.937910581473261 ], [ 323451.337560968648177, 4153253.165602904278785 ], [ 323426.518192240560893, 4153233.913727104663849 ], [ 323400.538963583821896, 4153216.258261540904641 ], [ 323373.502403145132121, 4153200.268884269986302 ], [ 323345.515211876831017, 4153186.008698059245944 ], [ 323316.687842436658684, 4153173.533981347922236 ], [ 323287.134063281759154, 4153162.893966144416481 ], [ 323256.970509676728398, 4153154.130643727723509 ], [ 323226.316223387140781, 4153147.278598927892745 ], [ 323195.292182876437437, 4153142.364873634651303 ], [ 323164.020825858926401, 4153139.408860078081489 ], [ 323132.625566094298847, 4153138.422224292065948 ], [ 323101.230306329613086, 4153139.408860078081489 ], [ 323069.958949312160257, 4153142.364873634651303 ], [ 323038.934908801456913, 4153147.278598927892745 ], [ 323008.280622511869296, 4153154.130643727723509 ], [ 322978.11706890683854, 4153162.893966144416481 ], [ 322948.56328975193901, 4153173.533981347922236 ], [ 322919.735920311766677, 4153186.008698059245944 ], [ 322891.748729043465573, 4153200.268884269986302 ], [ 322864.712168604775798, 4153216.258261540904641 ], [ 322838.732939948036801, 4153233.913727104663849 ], [ 322813.913571219949517, 4153253.165602904278785 ], [ 322790.352013129973784, 4153273.937910581473261 ], [ 322768.141252383589745, 4153296.14867132762447 ], [ 322747.368944706395268, 4153319.710229417774826 ], [ 322728.11706890683854, 4153344.529598145745695 ], [ 322710.461603343312163, 4153370.508826802484691 ], [ 322694.472226072393823, 4153397.545387241058052 ], [ 322680.21203986130422, 4153425.532578509300947 ], [ 322667.737323150155134, 4153454.359947949647903 ], [ 322657.097307946707588, 4153483.913727104663849 ], [ 322648.333985529956408, 4153514.077280709519982 ], [ 322641.48194072995102, 4153544.731566999107599 ], [ 322636.568215437058825, 4153575.755607509985566 ], [ 322633.612201880139764, 4153607.02696452755481 ], [ 322632.625566094298847, 4153638.422224292065948 ], [ 322633.612201880139764, 4153669.817484056577086 ], [ 322636.568215437058825, 4153701.08884107414633 ], [ 322641.48194072995102, 4153732.112881585024297 ], [ 322648.333985529956408, 4153762.767167874611914 ], [ 322657.097307946707588, 4153792.930721479468048 ], [ 322667.737323150155134, 4153822.484500634483993 ], [ 322680.21203986130422, 4153851.311870074830949 ], [ 322694.472226072393823, 4153879.299061343073845 ], [ 322710.461603343312163, 4153906.335621781647205 ], [ 322728.11706890683854, 4153932.314850438386202 ], [ 322747.368944706395268, 4153957.13421916635707 ], [ 322768.141252383589745, 4153980.695777256507427 ], [ 322790.352013129973784, 4154002.906538002658635 ], [ 322813.913571219949517, 4154023.678845679853112 ], [ 322838.732939948036801, 4154042.930721479468048 ], [ 322864.712168604775798, 4154060.586187043227255 ], [ 322891.748729043465573, 4154076.575564314145595 ], [ 322919.735920311766677, 4154090.835750524885952 ], [ 322948.56328975193901, 4154103.310467236209661 ], [ 322978.11706890683854, 4154113.950482439715415 ], [ 323008.280622511869296, 4154122.713804856408387 ], [ 323038.934908801456913, 4154129.565849656239152 ], [ 323069.958949312160257, 4154134.479574949480593 ], [ 323101.230306329671293, 4154137.435588506050408 ], [ 323132.625566094298847, 4154138.422224292065948 ], [ 323164.020825858984608, 4154137.435588506050408 ], [ 323195.292182876437437, 4154134.479574949480593 ], [ 323226.316223387140781, 4154129.565849656239152 ], [ 323256.970509676728398, 4154122.713804856408387 ], [ 323287.134063281759154, 4154113.950482439715415 ], [ 323316.687842436658684, 4154103.310467236209661 ], [ 323345.515211876831017, 4154090.835750524885952 ], [ 323373.502403145132121, 4154076.575564314145595 ], [ 323400.538963583821896, 4154060.586187043227255 ], [ 323426.518192240560893, 4154042.930721479468048 ], [ 323451.337560968648177, 4154023.678845679853112 ], [ 323474.89911905862391, 4154002.906538002658635 ], [ 323497.109879805007949, 4153980.695777256507427 ], [ 323517.882187482202426, 4153957.13421916635707 ], [ 323537.134063281759154, 4153932.314850438386202 ], [ 323554.789528845285531, 4153906.335621781647205 ], [ 323570.778906116203871, 4153879.299061343073845 ], [ 323585.039092327293474, 4153851.311870074830949 ], [ 323597.51380903844256, 4153822.484500634483993 ], [ 323608.153824241890106, 4153792.930721479468048 ], [ 323616.917146658641286, 4153762.767167874611914 ], [ 323623.769191458646674, 4153732.112881585024297 ], [ 323628.682916751538869, 4153701.08884107414633 ], [ 323631.63893030845793, 4153669.817484056577086 ], [ 323632.625566094298847, 4153638.422224292065948 ], [ 323631.63893030845793, 4153607.02696452755481 ], [ 323628.682916751538869, 4153575.755607509985566 ], [ 323623.769191458646674, 4153544.731566999107599 ], [ 323616.917146658641286, 4153514.077280709519982 ] ] ], [ [ [ 323311.956787206698209, 4155612.859790865797549 ], [ 323301.316772003250662, 4155583.306011710781604 ], [ 323288.842055292101577, 4155554.478642270434648 ], [ 323274.581869081011973, 4155526.491451002191752 ], [ 323258.592491810093634, 4155499.454890563618392 ], [ 323240.937026246567257, 4155473.475661906879395 ], [ 323221.685150447010528, 4155448.656293178908527 ], [ 323200.912842769816052, 4155425.094735088758171 ], [ 323178.702082023432013, 4155402.883974342606962 ], [ 323155.140523933456279, 4155382.111666665412486 ], [ 323130.321155205368996, 4155362.859790865797549 ], [ 323104.341926548629999, 4155345.204325302038342 ], [ 323077.305366109940223, 4155329.214948031120002 ], [ 323049.31817484163912, 4155314.954761820379645 ], [ 323020.490805401466787, 4155302.480045109055936 ], [ 322990.937026246567257, 4155291.840029905550182 ], [ 322960.7734726415365, 4155283.07670748885721 ], [ 322930.119186351948883, 4155276.224662689026445 ], [ 322899.095145841245539, 4155271.310937395785004 ], [ 322867.823788823734503, 4155268.354923839215189 ], [ 322836.42852905910695, 4155267.368288053199649 ], [ 322805.033269294421189, 4155268.354923839215189 ], [ 322773.76191227696836, 4155271.310937395785004 ], [ 322742.737871766265016, 4155276.224662689026445 ], [ 322712.083585476677399, 4155283.07670748885721 ], [ 322681.920031871646643, 4155291.840029905550182 ], [ 322652.366252716747113, 4155302.480045109055936 ], [ 322623.538883276574779, 4155314.954761820379645 ], [ 322595.551692008273676, 4155329.214948031120002 ], [ 322568.5151315695839, 4155345.204325302038342 ], [ 322542.535902912844904, 4155362.859790865797549 ], [ 322517.71653418475762, 4155382.111666665412486 ], [ 322494.154976094781887, 4155402.883974342606962 ], [ 322471.944215348397847, 4155425.094735088758171 ], [ 322451.171907671203371, 4155448.656293178908527 ], [ 322431.920031871646643, 4155473.475661906879395 ], [ 322414.264566308120266, 4155499.454890563618392 ], [ 322398.275189037201926, 4155526.491451002191752 ], [ 322384.015002826112323, 4155554.478642270434648 ], [ 322371.540286114963237, 4155583.306011710781604 ], [ 322360.90027091151569, 4155612.859790865797549 ], [ 322352.136948494764511, 4155643.023344470653683 ], [ 322345.284903694759123, 4155673.6776307602413 ], [ 322341.407399796880782, 4155698.159226868767291 ], [ 322317.802397889143322, 4155691.301339861471206 ], [ 322287.148111599555705, 4155684.449295061640441 ], [ 322256.124071088852361, 4155679.535569768399 ], [ 322224.852714071341325, 4155676.579556211829185 ], [ 322193.457454306713771, 4155675.592920425813645 ], [ 322162.06219454202801, 4155676.579556211829185 ], [ 322130.790837524575181, 4155679.535569768399 ], [ 322099.766797013871837, 4155684.449295061640441 ], [ 322069.11251072428422, 4155691.301339861471206 ], [ 322038.948957119253464, 4155700.064662278164178 ], [ 322009.395177964353934, 4155710.704677481669933 ], [ 321980.567808524181601, 4155723.179394192993641 ], [ 321952.580617255880497, 4155737.439580403733999 ], [ 321925.544056817190722, 4155753.428957674652338 ], [ 321899.564828160451725, 4155771.084423238411546 ], [ 321874.745459432364441, 4155790.336299038026482 ], [ 321851.183901342388708, 4155811.108606715220958 ], [ 321828.973140596004669, 4155833.319367461372167 ], [ 321808.200832918810192, 4155856.880925551522523 ], [ 321788.948957119253464, 4155881.700294279493392 ], [ 321771.293491555727087, 4155907.679522936232388 ], [ 321755.304114284808747, 4155934.716083374805748 ], [ 321741.043928073719144, 4155962.703274643048644 ], [ 321728.569211362570059, 4155991.5306440833956 ], [ 321717.929196159122512, 4156021.084423238411546 ], [ 321709.165873742371332, 4156051.247976843267679 ], [ 321702.313828942365944, 4156081.902263132855296 ], [ 321697.400103649473749, 4156112.926303643733263 ], [ 321694.444090092554688, 4156144.197660661302507 ], [ 321693.457454306713771, 4156175.592920425813645 ], [ 321694.444090092554688, 4156206.988180190324783 ], [ 321697.400103649473749, 4156238.259537207894027 ], [ 321702.313828942365944, 4156269.283577718771994 ], [ 321709.165873742371332, 4156299.937864008359611 ], [ 321717.929196159122512, 4156330.101417613215744 ], [ 321728.569211362570059, 4156359.65519676823169 ], [ 321741.043928073719144, 4156388.482566208578646 ], [ 321755.304114284808747, 4156416.469757476821542 ], [ 321771.293491555727087, 4156443.506317915394902 ], [ 321788.948957119253464, 4156469.485546572133899 ], [ 321808.200832918810192, 4156494.304915300104767 ], [ 321828.973140596004669, 4156517.866473390255123 ], [ 321851.183901342388708, 4156540.077234136406332 ], [ 321874.745459432364441, 4156560.849541813600808 ], [ 321899.564828160451725, 4156580.101417613215744 ], [ 321925.544056817190722, 4156597.756883176974952 ], [ 321952.580617255880497, 4156613.746260447893292 ], [ 321980.567808524181601, 4156628.006446658633649 ], [ 322009.395177964353934, 4156640.481163369957358 ], [ 322038.948957119253464, 4156651.121178573463112 ], [ 322069.11251072428422, 4156659.884500990156084 ], [ 322099.766797013871837, 4156666.736545789986849 ], [ 322130.790837524575181, 4156671.65027108322829 ], [ 322162.062194542086218, 4156674.606284639798105 ], [ 322193.457454306713771, 4156675.592920425813645 ], [ 322224.852714071399532, 4156674.606284639798105 ], [ 322256.124071088852361, 4156671.65027108322829 ], [ 322287.148111599555705, 4156666.736545789986849 ], [ 322317.802397889143322, 4156659.884500990156084 ], [ 322347.965951494174078, 4156651.121178573463112 ], [ 322377.519730649073608, 4156640.481163369957358 ], [ 322406.347100089245941, 4156628.006446658633649 ], [ 322434.334291357547045, 4156613.746260447893292 ], [ 322461.370851796236821, 4156597.756883176974952 ], [ 322487.350080452975817, 4156580.101417613215744 ], [ 322512.169449181063101, 4156560.849541813600808 ], [ 322535.731007271038834, 4156540.077234136406332 ], [ 322557.941768017422874, 4156517.866473390255123 ], [ 322578.71407569461735, 4156494.304915300104767 ], [ 322597.965951494174078, 4156469.485546572133899 ], [ 322615.621417057700455, 4156443.506317915394902 ], [ 322631.610794328618795, 4156416.469757476821542 ], [ 322645.870980539708398, 4156388.482566208578646 ], [ 322658.345697250857484, 4156359.65519676823169 ], [ 322668.98571245430503, 4156330.101417613215744 ], [ 322677.74903487105621, 4156299.937864008359611 ], [ 322684.601079671061598, 4156269.283577718771994 ], [ 322688.478583568939939, 4156244.801981610246003 ], [ 322712.083585476677399, 4156251.659868617542088 ], [ 322742.737871766265016, 4156258.511913417372853 ], [ 322773.76191227696836, 4156263.425638710614294 ], [ 322805.033269294479396, 4156266.381652267184108 ], [ 322836.42852905910695, 4156267.368288053199649 ], [ 322867.823788823792711, 4156266.381652267184108 ], [ 322899.095145841245539, 4156263.425638710614294 ], [ 322930.119186351948883, 4156258.511913417372853 ], [ 322960.7734726415365, 4156251.659868617542088 ], [ 322990.937026246567257, 4156242.896546200849116 ], [ 323020.490805401466787, 4156232.256530997343361 ], [ 323049.31817484163912, 4156219.781814286019653 ], [ 323077.305366109940223, 4156205.521628075279295 ], [ 323104.341926548629999, 4156189.532250804360956 ], [ 323130.321155205368996, 4156171.876785240601748 ], [ 323155.140523933456279, 4156152.624909440986812 ], [ 323178.702082023432013, 4156131.852601763792336 ], [ 323200.912842769816052, 4156109.641841017641127 ], [ 323221.685150447010528, 4156086.080282927490771 ], [ 323240.937026246567257, 4156061.260914199519902 ], [ 323258.592491810093634, 4156035.281685542780906 ], [ 323274.581869081011973, 4156008.245125104207546 ], [ 323288.842055292101577, 4155980.25793383596465 ], [ 323301.316772003250662, 4155951.430564395617694 ], [ 323311.956787206698209, 4155921.876785240601748 ], [ 323320.720109623449389, 4155891.713231635745615 ], [ 323327.572154423454776, 4155861.058945346157998 ], [ 323332.485879716346972, 4155830.034904835280031 ], [ 323335.441893273266032, 4155798.763547817710787 ], [ 323336.42852905910695, 4155767.368288053199649 ], [ 323335.441893273266032, 4155735.973028288688511 ], [ 323332.485879716346972, 4155704.701671271119267 ], [ 323327.572154423454776, 4155673.6776307602413 ], [ 323320.720109623449389, 4155643.023344470653683 ], [ 323311.956787206698209, 4155612.859790865797549 ] ] ], [ [ [ 322775.930821435526013, 4157819.389229379594326 ], [ 322767.167499018774834, 4157789.225675774738193 ], [ 322756.527483815327287, 4157759.671896619722247 ], [ 322744.052767104178201, 4157730.844527179375291 ], [ 322729.792580893088598, 4157702.857335911132395 ], [ 322713.803203622170258, 4157675.820775472559035 ], [ 322696.147738058643881, 4157649.841546815820038 ], [ 322676.895862259087153, 4157625.02217808784917 ], [ 322656.123554581892677, 4157601.460619997698814 ], [ 322633.912793835508637, 4157579.249859251547605 ], [ 322610.351235745532904, 4157558.477551574353129 ], [ 322585.53186701744562, 4157539.225675774738193 ], [ 322559.552638360706624, 4157521.570210210978985 ], [ 322532.516077922016848, 4157505.580832940060645 ], [ 322504.528886653715745, 4157491.320646729320288 ], [ 322475.701517213543411, 4157478.845930017996579 ], [ 322446.147738058643881, 4157468.205914814490825 ], [ 322415.984184453613125, 4157459.442592397797853 ], [ 322385.329898164025508, 4157452.590547597967088 ], [ 322354.305857653322164, 4157447.676822304725647 ], [ 322323.034500635811128, 4157444.720808748155832 ], [ 322291.639240871183574, 4157443.734172962140292 ], [ 322260.243981106497813, 4157444.720808748155832 ], [ 322228.972624089044984, 4157447.676822304725647 ], [ 322197.948583578341641, 4157452.590547597967088 ], [ 322167.294297288754024, 4157459.442592397797853 ], [ 322137.130743683723267, 4157468.205914814490825 ], [ 322107.576964528823737, 4157478.845930017996579 ], [ 322078.749595088651404, 4157491.320646729320288 ], [ 322050.762403820350301, 4157505.580832940060645 ], [ 322023.725843381660525, 4157521.570210210978985 ], [ 321997.746614724921528, 4157539.225675774738193 ], [ 321972.927245996834245, 4157558.477551574353129 ], [ 321949.365687906858511, 4157579.249859251547605 ], [ 321927.154927160474472, 4157601.460619997698814 ], [ 321906.382619483279996, 4157625.02217808784917 ], [ 321887.130743683723267, 4157649.841546815820038 ], [ 321869.47527812019689, 4157675.820775472559035 ], [ 321853.485900849278551, 4157702.857335911132395 ], [ 321839.225714638188947, 4157730.844527179375291 ], [ 321826.750997927039862, 4157759.671896619722247 ], [ 321816.110982723592315, 4157789.225675774738193 ], [ 321807.347660306841135, 4157819.389229379594326 ], [ 321800.495615506835748, 4157850.043515669181943 ], [ 321795.581890213943552, 4157881.06755618005991 ], [ 321792.625876657024492, 4157912.338913197629154 ], [ 321791.639240871183574, 4157943.734172962140292 ], [ 321792.625876657024492, 4157975.12943272665143 ], [ 321795.581890213943552, 4158006.400789744220674 ], [ 321800.495615506835748, 4158037.424830255098641 ], [ 321807.347660306841135, 4158068.079116544686258 ], [ 321816.110982723592315, 4158098.242670149542391 ], [ 321826.750997927039862, 4158127.796449304558337 ], [ 321839.225714638188947, 4158156.623818744905293 ], [ 321853.485900849278551, 4158184.611010013148189 ], [ 321869.47527812019689, 4158211.647570451721549 ], [ 321887.130743683723267, 4158237.626799108460546 ], [ 321906.382619483279996, 4158262.446167836431414 ], [ 321927.154927160474472, 4158286.00772592658177 ], [ 321949.365687906858511, 4158308.218486672732979 ], [ 321972.927245996834245, 4158328.990794349927455 ], [ 321997.746614724921528, 4158348.242670149542391 ], [ 322023.725843381660525, 4158365.898135713301599 ], [ 322050.762403820350301, 4158381.887512984219939 ], [ 322078.749595088651404, 4158396.147699194960296 ], [ 322107.576964528823737, 4158408.622415906284004 ], [ 322137.130743683723267, 4158419.262431109789759 ], [ 322167.294297288754024, 4158428.025753526482731 ], [ 322197.948583578341641, 4158434.877798326313496 ], [ 322228.972624089044984, 4158439.791523619554937 ], [ 322260.243981106556021, 4158442.747537176124752 ], [ 322291.639240871183574, 4158443.734172962140292 ], [ 322323.034500635869335, 4158442.747537176124752 ], [ 322354.305857653322164, 4158439.791523619554937 ], [ 322385.329898164025508, 4158434.877798326313496 ], [ 322415.984184453613125, 4158428.025753526482731 ], [ 322446.147738058643881, 4158419.262431109789759 ], [ 322475.701517213543411, 4158408.622415906284004 ], [ 322504.528886653715745, 4158396.147699194960296 ], [ 322532.516077922016848, 4158381.887512984219939 ], [ 322559.552638360706624, 4158365.898135713301599 ], [ 322585.53186701744562, 4158348.242670149542391 ], [ 322610.351235745532904, 4158328.990794349927455 ], [ 322633.912793835508637, 4158308.218486672732979 ], [ 322656.123554581892677, 4158286.00772592658177 ], [ 322676.895862259087153, 4158262.446167836431414 ], [ 322696.147738058643881, 4158237.626799108460546 ], [ 322713.803203622170258, 4158211.647570451721549 ], [ 322729.792580893088598, 4158184.611010013148189 ], [ 322744.052767104178201, 4158156.623818744905293 ], [ 322756.527483815327287, 4158127.796449304558337 ], [ 322767.167499018774834, 4158098.242670149542391 ], [ 322775.930821435526013, 4158068.079116544686258 ], [ 322782.782866235531401, 4158037.424830255098641 ], [ 322787.696591528423596, 4158006.400789744220674 ], [ 322790.652605085342657, 4157975.12943272665143 ], [ 322791.639240871183574, 4157943.734172962140292 ], [ 322790.652605085342657, 4157912.338913197629154 ], [ 322787.696591528423596, 4157881.06755618005991 ], [ 322782.782866235531401, 4157850.043515669181943 ], [ 322775.930821435526013, 4157819.389229379594326 ] ] ], [ [ [ 323353.687908097577747, 4158675.280710969120264 ], [ 323343.0478928941302, 4158645.726931814104319 ], [ 323330.573176182981115, 4158616.899562373757362 ], [ 323316.312989971891511, 4158588.912371105514467 ], [ 323300.323612700973172, 4158561.875810666941106 ], [ 323282.668147137446795, 4158535.89658201020211 ], [ 323263.416271337890066, 4158511.077213282231241 ], [ 323242.64396366069559, 4158487.515655192080885 ], [ 323220.433202914311551, 4158465.304894445929676 ], [ 323196.871644824335817, 4158444.5325867687352 ], [ 323172.052276096248534, 4158425.280710969120264 ], [ 323146.073047439509537, 4158407.625245405361056 ], [ 323119.036487000819761, 4158391.635868134442717 ], [ 323091.049295732518658, 4158377.375681923702359 ], [ 323062.221926292346325, 4158364.900965212378651 ], [ 323032.668147137446795, 4158354.260950008872896 ], [ 323002.504593532416038, 4158345.497627592179924 ], [ 322971.850307242828421, 4158338.64558279234916 ], [ 322940.826266732125077, 4158333.731857499107718 ], [ 322909.554909714614041, 4158330.775843942537904 ], [ 322878.159649949986488, 4158329.789208156522363 ], [ 322846.764390185300726, 4158330.775843942537904 ], [ 322815.493033167847898, 4158333.731857499107718 ], [ 322784.468992657144554, 4158338.64558279234916 ], [ 322753.814706367556937, 4158345.497627592179924 ], [ 322723.651152762526181, 4158354.260950008872896 ], [ 322694.09737360762665, 4158364.900965212378651 ], [ 322665.270004167454317, 4158377.375681923702359 ], [ 322637.282812899153214, 4158391.635868134442717 ], [ 322610.246252460463438, 4158407.625245405361056 ], [ 322584.267023803724442, 4158425.280710969120264 ], [ 322559.447655075637158, 4158444.5325867687352 ], [ 322535.886096985661425, 4158465.304894445929676 ], [ 322513.675336239277385, 4158487.515655192080885 ], [ 322492.903028562082909, 4158511.077213282231241 ], [ 322473.651152762526181, 4158535.89658201020211 ], [ 322455.995687198999804, 4158561.875810666941106 ], [ 322440.006309928081464, 4158588.912371105514467 ], [ 322425.74612371699186, 4158616.899562373757362 ], [ 322413.271407005842775, 4158645.726931814104319 ], [ 322402.631391802395228, 4158675.280710969120264 ], [ 322393.868069385644048, 4158705.444264573976398 ], [ 322387.016024585638661, 4158736.098550863564014 ], [ 322382.102299292746466, 4158767.122591374441981 ], [ 322379.146285735827405, 4158798.393948392011225 ], [ 322378.159649949986488, 4158829.789208156522363 ], [ 322379.146285735827405, 4158861.184467921033502 ], [ 322382.102299292746466, 4158892.455824938602746 ], [ 322387.016024585638661, 4158923.479865449480712 ], [ 322393.868069385644048, 4158954.134151739068329 ], [ 322402.631391802395228, 4158984.297705343924463 ], [ 322413.271407005842775, 4159013.851484498940408 ], [ 322425.74612371699186, 4159042.678853939287364 ], [ 322440.006309928081464, 4159070.66604520753026 ], [ 322455.995687198999804, 4159097.702605646103621 ], [ 322473.651152762526181, 4159123.681834302842617 ], [ 322492.903028562082909, 4159148.501203030813485 ], [ 322513.675336239277385, 4159172.062761120963842 ], [ 322535.886096985661425, 4159194.273521867115051 ], [ 322559.447655075637158, 4159215.045829544309527 ], [ 322584.267023803724442, 4159234.297705343924463 ], [ 322610.246252460463438, 4159251.953170907683671 ], [ 322637.282812899153214, 4159267.94254817860201 ], [ 322665.270004167454317, 4159282.202734389342368 ], [ 322694.09737360762665, 4159294.677451100666076 ], [ 322723.651152762526181, 4159305.31746630417183 ], [ 322753.814706367556937, 4159314.080788720864803 ], [ 322784.468992657144554, 4159320.932833520695567 ], [ 322815.493033167847898, 4159325.846558813937008 ], [ 322846.764390185358934, 4159328.802572370506823 ], [ 322878.159649949986488, 4159329.789208156522363 ], [ 322909.554909714672249, 4159328.802572370506823 ], [ 322940.826266732125077, 4159325.846558813937008 ], [ 322971.850307242828421, 4159320.932833520695567 ], [ 323002.504593532416038, 4159314.080788720864803 ], [ 323032.668147137446795, 4159305.31746630417183 ], [ 323062.221926292346325, 4159294.677451100666076 ], [ 323091.049295732518658, 4159282.202734389342368 ], [ 323119.036487000819761, 4159267.94254817860201 ], [ 323146.073047439509537, 4159251.953170907683671 ], [ 323172.052276096248534, 4159234.297705343924463 ], [ 323196.871644824335817, 4159215.045829544309527 ], [ 323220.433202914311551, 4159194.273521867115051 ], [ 323242.64396366069559, 4159172.062761120963842 ], [ 323263.416271337890066, 4159148.501203030813485 ], [ 323282.668147137446795, 4159123.681834302842617 ], [ 323300.323612700973172, 4159097.702605646103621 ], [ 323316.312989971891511, 4159070.66604520753026 ], [ 323330.573176182981115, 4159042.678853939287364 ], [ 323343.0478928941302, 4159013.851484498940408 ], [ 323353.687908097577747, 4158984.297705343924463 ], [ 323362.451230514328927, 4158954.134151739068329 ], [ 323369.303275314334314, 4158923.479865449480712 ], [ 323374.21700060722651, 4158892.455824938602746 ], [ 323377.17301416414557, 4158861.184467921033502 ], [ 323378.159649949986488, 4158829.789208156522363 ], [ 323377.17301416414557, 4158798.393948392011225 ], [ 323374.21700060722651, 4158767.122591374441981 ], [ 323369.303275314334314, 4158736.098550863564014 ], [ 323362.451230514328927, 4158705.444264573976398 ], [ 323353.687908097577747, 4158675.280710969120264 ] ] ], [ [ [ 324656.320392890309449, 4159453.697959493845701 ], [ 324645.680377686861902, 4159424.144180338829756 ], [ 324633.205660975712817, 4159395.3168108984828 ], [ 324618.945474764623214, 4159367.329619630239904 ], [ 324602.956097493704874, 4159340.293059191666543 ], [ 324585.300631930178497, 4159314.313830534927547 ], [ 324566.048756130621769, 4159289.494461806956679 ], [ 324545.276448453427292, 4159265.932903716806322 ], [ 324523.065687707043253, 4159243.722142970655113 ], [ 324499.50412961706752, 4159222.949835293460637 ], [ 324474.684760888980236, 4159203.697959493845701 ], [ 324448.705532232241239, 4159186.042493930086493 ], [ 324421.668971793551464, 4159170.053116659168154 ], [ 324393.68178052525036, 4159155.792930448427796 ], [ 324364.854411085078027, 4159143.318213737104088 ], [ 324335.300631930178497, 4159132.678198533598334 ], [ 324305.137078325147741, 4159123.914876116905361 ], [ 324274.482792035560124, 4159117.062831317074597 ], [ 324243.45875152485678, 4159112.149106023833156 ], [ 324212.187394507345743, 4159109.193092467263341 ], [ 324180.79213474271819, 4159108.206456681247801 ], [ 324149.396874978032429, 4159109.193092467263341 ], [ 324118.1255179605796, 4159112.149106023833156 ], [ 324087.101477449876256, 4159117.062831317074597 ], [ 324056.447191160288639, 4159123.914876116905361 ], [ 324026.283637555257883, 4159132.678198533598334 ], [ 323996.729858400358353, 4159143.318213737104088 ], [ 323967.90248896018602, 4159155.792930448427796 ], [ 323939.915297691884916, 4159170.053116659168154 ], [ 323912.878737253195141, 4159186.042493930086493 ], [ 323886.899508596456144, 4159203.697959493845701 ], [ 323862.08013986836886, 4159222.949835293460637 ], [ 323838.518581778393127, 4159243.722142970655113 ], [ 323816.307821032009088, 4159265.932903716806322 ], [ 323795.535513354814611, 4159289.494461806956679 ], [ 323776.283637555257883, 4159314.313830534927547 ], [ 323758.628171991731506, 4159340.293059191666543 ], [ 323742.638794720813166, 4159367.329619630239904 ], [ 323728.378608509723563, 4159395.3168108984828 ], [ 323715.903891798574477, 4159424.144180338829756 ], [ 323705.263876595126931, 4159453.697959493845701 ], [ 323696.500554178375751, 4159483.861513098701835 ], [ 323689.648509378370363, 4159514.515799388289452 ], [ 323684.734784085478168, 4159545.539839899167418 ], [ 323681.778770528559107, 4159576.811196916736662 ], [ 323680.79213474271819, 4159608.206456681247801 ], [ 323681.778770528559107, 4159639.601716445758939 ], [ 323684.734784085478168, 4159670.873073463328183 ], [ 323689.648509378370363, 4159701.89711397420615 ], [ 323696.500554178375751, 4159732.551400263793766 ], [ 323705.263876595126931, 4159762.7149538686499 ], [ 323715.903891798574477, 4159792.268733023665845 ], [ 323728.378608509723563, 4159821.096102464012802 ], [ 323742.638794720813166, 4159849.083293732255697 ], [ 323758.628171991731506, 4159876.119854170829058 ], [ 323776.283637555257883, 4159902.099082827568054 ], [ 323795.535513354814611, 4159926.918451555538923 ], [ 323816.307821032009088, 4159950.480009645689279 ], [ 323838.518581778393127, 4159972.690770391840488 ], [ 323862.08013986836886, 4159993.463078069034964 ], [ 323886.899508596456144, 4160012.7149538686499 ], [ 323912.878737253195141, 4160030.370419432409108 ], [ 323939.915297691884916, 4160046.359796703327447 ], [ 323967.90248896018602, 4160060.619982914067805 ], [ 323996.729858400358353, 4160073.094699625391513 ], [ 324026.283637555257883, 4160083.734714828897268 ], [ 324056.447191160288639, 4160092.49803724559024 ], [ 324087.101477449876256, 4160099.350082045421004 ], [ 324118.1255179605796, 4160104.263807338662446 ], [ 324149.396874978090636, 4160107.21982089523226 ], [ 324180.79213474271819, 4160108.206456681247801 ], [ 324212.187394507403951, 4160107.21982089523226 ], [ 324243.45875152485678, 4160104.263807338662446 ], [ 324274.482792035560124, 4160099.350082045421004 ], [ 324305.137078325147741, 4160092.49803724559024 ], [ 324335.300631930178497, 4160083.734714828897268 ], [ 324364.854411085078027, 4160073.094699625391513 ], [ 324393.68178052525036, 4160060.619982914067805 ], [ 324421.668971793551464, 4160046.359796703327447 ], [ 324448.705532232241239, 4160030.370419432409108 ], [ 324474.684760888980236, 4160012.7149538686499 ], [ 324499.50412961706752, 4159993.463078069034964 ], [ 324523.065687707043253, 4159972.690770391840488 ], [ 324545.276448453427292, 4159950.480009645689279 ], [ 324566.048756130621769, 4159926.918451555538923 ], [ 324585.300631930178497, 4159902.099082827568054 ], [ 324602.956097493704874, 4159876.119854170829058 ], [ 324618.945474764623214, 4159849.083293732255697 ], [ 324633.205660975712817, 4159821.096102464012802 ], [ 324645.680377686861902, 4159792.268733023665845 ], [ 324656.320392890309449, 4159762.7149538686499 ], [ 324665.083715307060629, 4159732.551400263793766 ], [ 324671.935760107066017, 4159701.89711397420615 ], [ 324676.849485399958212, 4159670.873073463328183 ], [ 324679.805498956877273, 4159639.601716445758939 ], [ 324680.79213474271819, 4159608.206456681247801 ], [ 324679.805498956877273, 4159576.811196916736662 ], [ 324676.849485399958212, 4159545.539839899167418 ], [ 324671.935760107066017, 4159514.515799388289452 ], [ 324665.083715307060629, 4159483.861513098701835 ], [ 324656.320392890309449, 4159453.697959493845701 ] ] ], [ [ [ 324502.773746763588861, 4160724.608325428795069 ], [ 324492.133731560141314, 4160695.054546273779124 ], [ 324479.659014848992229, 4160666.227176833432168 ], [ 324465.398828637902625, 4160638.239985565189272 ], [ 324449.409451366984285, 4160611.203425126615912 ], [ 324431.753985803457908, 4160585.224196469876915 ], [ 324412.50211000390118, 4160560.404827741906047 ], [ 324391.729802326706704, 4160536.843269651755691 ], [ 324369.519041580322664, 4160514.632508905604482 ], [ 324345.957483490346931, 4160493.860201228410006 ], [ 324321.138114762259647, 4160474.608325428795069 ], [ 324295.158886105520651, 4160456.952859865035862 ], [ 324268.122325666830875, 4160440.963482594117522 ], [ 324240.135134398529772, 4160426.703296383377165 ], [ 324211.307764958357438, 4160414.228579672053456 ], [ 324181.753985803457908, 4160403.588564468547702 ], [ 324151.590432198427152, 4160394.82524205185473 ], [ 324120.936145908839535, 4160387.973197252023965 ], [ 324089.912105398136191, 4160383.059471958782524 ], [ 324058.640748380625155, 4160380.103458402212709 ], [ 324027.245488615997601, 4160379.116822616197169 ], [ 323995.85022885131184, 4160380.103458402212709 ], [ 323964.578871833859012, 4160383.059471958782524 ], [ 323933.554831323155668, 4160387.973197252023965 ], [ 323902.900545033568051, 4160394.82524205185473 ], [ 323872.736991428537294, 4160403.588564468547702 ], [ 323843.183212273637764, 4160414.228579672053456 ], [ 323814.355842833465431, 4160426.703296383377165 ], [ 323786.368651565164328, 4160440.963482594117522 ], [ 323759.332091126474552, 4160456.952859865035862 ], [ 323733.352862469735555, 4160474.608325428795069 ], [ 323708.533493741648272, 4160493.860201228410006 ], [ 323684.971935651672538, 4160514.632508905604482 ], [ 323662.761174905288499, 4160536.843269651755691 ], [ 323641.988867228094023, 4160560.404827741906047 ], [ 323622.736991428537294, 4160585.224196469876915 ], [ 323605.081525865010917, 4160611.203425126615912 ], [ 323589.092148594092578, 4160638.239985565189272 ], [ 323574.831962383002974, 4160666.227176833432168 ], [ 323562.357245671853889, 4160695.054546273779124 ], [ 323551.717230468406342, 4160724.608325428795069 ], [ 323542.953908051655162, 4160754.771879033651203 ], [ 323536.101863251649775, 4160785.42616532323882 ], [ 323531.188137958757579, 4160816.450205834116787 ], [ 323528.232124401838519, 4160847.721562851686031 ], [ 323527.245488615997601, 4160879.116822616197169 ], [ 323528.232124401838519, 4160910.512082380708307 ], [ 323531.188137958757579, 4160941.783439398277551 ], [ 323536.101863251649775, 4160972.807479909155518 ], [ 323542.953908051655162, 4161003.461766198743135 ], [ 323551.717230468406342, 4161033.625319803599268 ], [ 323562.357245671853889, 4161063.179098958615214 ], [ 323574.831962383002974, 4161092.00646839896217 ], [ 323589.092148594092578, 4161119.993659667205065 ], [ 323605.081525865010917, 4161147.030220105778426 ], [ 323622.736991428537294, 4161173.009448762517422 ], [ 323641.988867228094023, 4161197.828817490488291 ], [ 323662.761174905288499, 4161221.390375580638647 ], [ 323684.971935651672538, 4161243.601136326789856 ], [ 323708.533493741648272, 4161264.373444003984332 ], [ 323733.352862469735555, 4161283.625319803599268 ], [ 323759.332091126474552, 4161301.280785367358476 ], [ 323786.368651565164328, 4161317.270162638276815 ], [ 323814.355842833465431, 4161331.530348849017173 ], [ 323843.183212273637764, 4161344.005065560340881 ], [ 323872.736991428537294, 4161354.645080763846636 ], [ 323902.900545033568051, 4161363.408403180539608 ], [ 323933.554831323155668, 4161370.260447980370373 ], [ 323964.578871833859012, 4161375.174173273611814 ], [ 323995.850228851370048, 4161378.130186830181628 ], [ 324027.245488615997601, 4161379.116822616197169 ], [ 324058.640748380683362, 4161378.130186830181628 ], [ 324089.912105398136191, 4161375.174173273611814 ], [ 324120.936145908839535, 4161370.260447980370373 ], [ 324151.590432198427152, 4161363.408403180539608 ], [ 324181.753985803457908, 4161354.645080763846636 ], [ 324211.307764958357438, 4161344.005065560340881 ], [ 324240.135134398529772, 4161331.530348849017173 ], [ 324268.122325666830875, 4161317.270162638276815 ], [ 324295.158886105520651, 4161301.280785367358476 ], [ 324321.138114762259647, 4161283.625319803599268 ], [ 324345.957483490346931, 4161264.373444003984332 ], [ 324369.519041580322664, 4161243.601136326789856 ], [ 324391.729802326706704, 4161221.390375580638647 ], [ 324412.50211000390118, 4161197.828817490488291 ], [ 324431.753985803457908, 4161173.009448762517422 ], [ 324449.409451366984285, 4161147.030220105778426 ], [ 324465.398828637902625, 4161119.993659667205065 ], [ 324479.659014848992229, 4161092.00646839896217 ], [ 324492.133731560141314, 4161063.179098958615214 ], [ 324502.773746763588861, 4161033.625319803599268 ], [ 324511.53706918034004, 4161003.461766198743135 ], [ 324518.389113980345428, 4160972.807479909155518 ], [ 324523.302839273237623, 4160941.783439398277551 ], [ 324526.258852830156684, 4160910.512082380708307 ], [ 324527.245488615997601, 4160879.116822616197169 ], [ 324526.258852830156684, 4160847.721562851686031 ], [ 324523.302839273237623, 4160816.450205834116787 ], [ 324518.389113980345428, 4160785.42616532323882 ], [ 324511.53706918034004, 4160754.771879033651203 ], [ 324502.773746763588861, 4160724.608325428795069 ] ] ] ] } }
]
}
